"","business_id","name","address","city","state","postal_code","latitude","longitude","stars"
"63","owV0aSgh4t_9aG56iPxGEw","Panda Express","6895 Ridge Rd","Parma","OH","44129",41.3780450831,-81.7341383189,2.5
"305","iDHWqYdaTd5cHjppBdg5Rw","Classic Chinese Cuisine","1025 Washington Pike, Ste 25","Bridgeville","PA","15017",40.36464,-80.111125,3.5
"540","SWDEdiv_v1QppobT1YnEPA","Chin's Pagoda Chinese & American Restaurant","30708 Lake Shore Blvd","Willowick","OH","44095",41.6406608,-81.4719222,3
"564","P9ASoX1gV30Sw7_dWvrv5Q","Faith Sung Inc Dba Asian Kitchen","1301 E 9th St","Cleveland","OH","44114",41.5049336,-81.6895088,4
"619","G4JLnk8TkeAhZ71V4Pof8A","Panda Express","4155 William Penn Hwy","Monroeville","PA","15146",40.4392892,-79.7651236,3
"806","izOvku5li7kyzY76UzLP2g","Yen's Gourmet","4219 Murray Ave","Pittsburgh","PA","15217",40.4225614,-79.9285714,2
"1019","gxvSB3hEIW2EfTtUu77rZg","China Wok","6178 Dunham Rd","Maple Heights","OH","44137",41.391911,-81.576027,3.5
"1040","HVpwpXneaCWMeEBF7H8jpQ","Taiwan Little Eats","320 State St","Madison","WI","53703",43.0749538,-89.3907598,4
"1125","2cetuQgbP1Bnzm-uMRlocQ","Nam's Noodle","1336 Regent St","Madison","WI","53715",43.0679775,-89.4084538,3.5
"1175","2lXYidovGbSa56cd07oHlg","Hunan of Stow","4157 Bridgewater Pkwy","Stow","OH","44224",41.1803286,-81.4816831,3
"1245","mv-jYCNbl37aZ7gVZu8vaw","Ruby Oriental Restaurant","111 River Pl","Monona","WI","53716",43.0472392,-89.3265349,2.5
"1330","OyBStpjF5e_iRCMXflFasQ","Evo Cafe","711 S 6th St","Champaign","IL","61820",40.1094391,-88.2306035,2.5
"1331","riXr33UJRQXVMKJcNZPqqw","Wing Kee","23161 Emery Rd","Cleveland","OH","44128",41.4357413332,-81.5152082,1.5
"1393","8ZL4ed3Y8_F6AgPAYxgi2g","Hunan Chester","12611 Chillicothe Rd","Chesterland","OH","44026",41.525976,-81.336288,3.5
"1469","y3vpN6sfipzEpn9Tt5wuog","China Dragon","87 Northfield Rd","Bedford","OH","44146",41.379594,-81.526479,3
"1550","gz87Wa7QUZ3gNlgE9NVPAA","Chan An Restaurant","2013 Wharton St","Pittsburgh","PA","15203",40.431507,-79.977122,3
"1645","jjBTBObnHrY87qQIMybjzQ","Blue Jade","7080 Engle Rd, Ste B","Cleveland","OH","44130",41.3746218,-81.8257664,3.5
"1664","vGCAzbPIcZNkqNkKBbh4Ow","Dragon Town","503 Lincoln Ave","Bellevue","PA","15202",40.4954484,-80.0558941,3
"1811","sCLXU9ehXMNsodcZqXKNZA","King China Buffet","5983 Andrews Rd","Mentor-on-the-Lake","OH","44060",41.7071053,-81.3612821,3
"1865","WTluJrwTxVxZkXovV6cnnQ","Panda Express","7223 McKnight Rd","Pittsburgh","PA","15237",40.536824,-80.012042,3
"1995","MFbTdZe4Aby_0UbWWsfl6Q","Food King","1733 Pearl Rd, Ste 115","Brunswick","OH","44212",41.2281456,-81.8397961,4
"2104","3e0IGa_-zqTemKLc1dbdmg","Phusion Cafe","11611 Euclid Ave","Cleveland","OH","44106",41.5109853006,-81.6030496359,4
"2130","qAzOcHnWerREl678su-p0A","Asian Garden","4136 Library Rd","Pittsburgh","PA","15234",40.358953,-80.029218,2.5
"2189","8AAQha5aPcqR4ml_U6ZOlg","China Star","1308 Copley Rd","Akron","OH","44320",41.0841653,-81.5690901,2.5
"2218","UPSzbM6D2SkarWAINq1I9A","Taydo Vietnamese & Chinese Restaurant","11725 Snow Rd","Parma","OH","44130",41.4042964,-81.7697802,4
"2335","-XH3-e3jDVdjHJq7GfNY7w","Asian Taste Restaurant","502 E John St","Champaign","IL","61820",40.1092811348,-88.2313949615,3.5
"2415","XhMfL-6lt-prYyC9Lp02gg","Best Wok Chinese","7671 W Ridgewood Dr","Cleveland","OH","44129",41.383402,-81.737832,4
"2440","D2eZD_MP8Ds32rkoVI_MBQ","Shanghai Wok by B & Y","10424 Northfield Rd","Northfield","OH","44067",41.3423913196,-81.5295235813,3.5
"2441","Q3zZTpHQBSbiPq2lLaTtgw","Sichuan Palace","60 Federal Dr","Pittsburgh","PA","15235",40.4623662678,-79.8267316637,4
"2480","JEqM8xXhKumU5AfhmsiD8w","Bean Curd Chinese Restaurant","4147 Washington Rd","Canonsburg","PA","15317",40.262569,-80.132092,4
"2533","t_yiQnxUDdPPCN2z4QyezA","Golden Harbor Authentic Chinese Cuisine","505 S Neil St","Champaign","IL","61820",40.1110535,-88.2441408,4.5
"2560","EVkytEhlC1nswqmgrHdviw","Bo Bo China","404 E Green St","Champaign","IL","61820",40.1104457,-88.2330726,2.5
"2588","dRT7tLyakasIjJ4B0Fm92Q","Dean's House","14393 Pearl Rd","Strongsville","OH","44136",41.309764,-81.834169,3
"2602","ui33pIJmkW0s8HddH_ZZ9A","Wild Fusion","3815 Center Rd","Brunswick","OH","44212",41.238834,-81.82297,4
"2606","ceuvH6NpDhpT1p4q1w93pA","Orient House","626 S Park St","Madison","WI","53715",43.0603664,-89.4010906,3.5
"2673","VGxJbglGlx-a7Gdc55Q6jQ","Katana","3229 W Liberty Ave","Pittsburgh","PA","15216",40.3899009,-80.0406617,3
"2696","1MrJJ9tyNyfFrxaNZ67xFg","Silk Road Gourmet Chinese","5301 Grove Rd, Ste 1","Pittsburgh","PA","15236",40.3591070736,-80.0020897818,4
"2721","GeeR1ScER2WpFoJs1sTjsA","Panda Express","1401 Center Rd","Avon","OH","44011",41.4691486288,-82.0192191362,2.5
"2727","Ks7EuyQVI2JEif4Xp70MmA","China House","104 Front St","Berea","OH","44017",41.36819,-81.852802,3
"2747","w4MypAX8UIaJq-mhCZBq2A","Hong To Chinese Restaurant","4905 Robinhood Dr","Willoughby","OH","44094",41.6262114,-81.42652,3.5
"2774","PXKjfPxjJSykV3vN8GAoBQ","China House","5513 William Flynn Hwy, Ste 600","Gibsonia","PA","15044",40.6271469,-79.9425004,4
"2779","3Esl4FVI9Rzl_KSmIiMgaw","Jackie Chen Wok","2756 Van Aken Blvd","Cleveland","OH","44120",41.4828477,-81.5888412,3.5
"2786","lWk3vNrOIFTbUwEZBkY2wg","Peking House","2550 Brownsville Rd","South Park","PA","15129",40.2935766,-79.9965838,3.5
"2788","jDZJsIyc3jXjcTtJk_p8ZA","Orient Express","4609 Forbes Ave","Pittsburgh","PA","15213",40.4446795,-79.9481851,3
"2848","vVdY2qDO7dkUrU8LXYZ1uA","Green Jade","1109 W Windsor","Champaign","IL","61821",40.0831798963,-88.2643084814,4
"3039","z9lOfnUorcbWR_xS0DSeHw","Fugu","411 W Gilman St","Madison","WI","53703",43.074392,-89.3936635,3.5
"3093","sfd19Wo_7g2TwaoJmA9B8A","Hunan Coventry","1800 Coventry Rd","Cleveland Heights","OH","44118",41.5103685019,-81.5802007953,3
"3109","zRBDq7hLQevQXeZAGRkRCA","China King 1","375 Lear Rd","Avon Lake","OH","44012",41.4948525,-81.9860854,3.5
"3368","ba2xyZXG8hRb3hh7uDZs_g","New Chinatown Buffet","5234 Cobblestone Rd","Sheffield Village","OH","44035",41.419496,-82.0811004,3
"3393","w65C613GYsoSzk9HGY3Y8w","China House","160 Main St","Painesville","OH","44077",41.725564,-81.2417177,3.5
"3554","hcFSc0OHgZJybnjQBrL_8Q","Everyday Noodles","5875 Forbes Ave","Pittsburgh","PA","15217",40.438262,-79.920082,4
"3593","8cjXEmuqgCbIRudb2D52qw","Nani Restaurant","518 Grand Canyon Dr","Madison","WI","53719",43.0551558,-89.497509,3.5
"3683","P3dBcZh_Hmr1wVWFZn2b-g","Hunan Chinese Restaurant","1136 E Thorn Run Rd","Coraopolis","PA","15108",40.505778,-80.2095604,3.5
"3692","1SJiW_mW6IlEe7hqMTnjYg","China Wok","3006 Broadview Rd","Cleveland","OH","44109",41.44045,-81.702275,4
"3759","JJi7c7uiTzCqeWNTsldgXQ","Red Tea House","1717 Cochran Rd","Pittsburgh","PA","15220",40.3918384617,-80.0670470873,4
"3815","ltqvLrYq9QjeQjQ1NlqLcA","Ming Garden","1804 Sangamon Dr","Champaign","IL","61821",40.1025734113,-88.277292841,3
"3859","OPIX1wTOll0aZT08Wr6sDw","China Dragon","3468 Mayfield Rd","Cleveland","OH","44118",41.51628,-81.55327,3.5
"3865","rQ6C54q1N2iq9iDKSA3QGA","New Dragon Express","3127 Washington Pike, Ste 100","Bridgeville","PA","15017",40.3473524,-80.11261,3.5
"3907","eab04KSBbf30FqB4cH8erQ","Umami Ramen & Dumpling Bar","923 Williamson St","Madison","WI","53703",43.0798377,-89.3687295,3.5
"3911","egxK8E9T6MWLxJyD_iCIVQ","China Palace","409 Broad St","Sewickley","PA","15143",40.5398354576,-80.1812363073,3
"3929","-R_dMb9Z1eBv_FlYZrrKbw","Oriental Wok","532 S Park St","Madison","WI","53715",43.0611378,-89.4010411,2.5
"3953","AV72aytrW-z787seJAku2w","Chopsticks Express","8800 Day Dr","Parma","OH","44129",41.3809254,-81.7460113,4
"4040","KzLjbXEDH1e1WrfzrrzZKw","Mandarin Gourmet","305 Wood St","Pittsburgh","PA","15222",40.4391496,-80.0017417,3
"4076","jTRKHyPmR5RwHVsqmhPTwg","Jade Chinese Kitchen","14421 Cedar Rd","South Euclid","OH","44121",41.5017074,-81.5205765,4
"4082","E4HlcOykIxIDiJyUKO-eIg","Chang Jiang Restaurant","3195 Muir Field Rd","Madison","WI","53719",43.0162232238,-89.5103274509,2.5
"4090","Lw2vlPixPe72lDp9Cx6GoA","Wang's Kitchen","3625 Brownsville Rd","Pittsburgh","PA","15227",40.37317,-79.97514,4
"4137","cGuUEFw374zfpr3Cp8ywJw","Shanghai 1938","200 S Matthews","Urbana","IL","61801",40.1108998121,-88.225634608,2
"4143","dazGlP4Rk4nxlyMtlvkpvA","Dragon I","422 State St","Madison","WI","53703",43.075006,-89.3921359,2.5
"4148","S6dARuOrrOXd4xSiTHti8g","Chengdu Gourmet","5840 Forward Ave","Pittsburgh","PA","15217",40.4295421035,-79.9223725553,3.5
"4160","xXGRRmCIf6t6Bn-NvxHYwA","Foo Sing","25102 Brookpark Rd, Ste 130","North Olmsted","OH","44070",41.4193581,-81.8968105,3.5
"4169","rXKzE4Iraz7vGWovWW-aBA","Yuzu Kitchen","409 Wood St","Pittsburgh","PA","15222",40.439707,-80.001261,4
"4312","xONNOYgT5BBJj_EVJBMghQ","China Garden","90 Malts Ln","Irwin","PA","15642",40.33327,-79.744246,4.5
"4366","QbuWKli8fme4O84t99UfSg","The Mintt","3033 Banksville Rd","Pittsburgh","PA","15216",40.4012123,-80.0423887,3.5
"4388","FNf9Q2FnB9sI9kOMAgj0AQ","Golden Star","4655 William Flynn Hwy","Hampton Township","PA","15101",40.5905329,-79.9483052,3.5
"4411","dY_oOCE3fU50zs97SVRlrg","Hong Kong Restaurant","5855 Smith Rd","Brook Park","OH","44142",41.4045465,-81.8040407,3.5
"4460","VBxKOEdjg7ryuA2Ni080rA","China Town 1","3718 Pearl Rd","Cleveland","OH","44109",41.4540638,-81.701891,4.5
"4572","hSfsnEa9q1Xx-0lAYDTLGw","Chang Jiang Chinese Restaurant","1200 Springdale St","Mount Horeb","WI","53572",43.0107265335,-89.72526337,3.5
"4574","mpG1R1ktTI3x1twNBsGvXQ","Blue Ginger Asian Bistro","1061 W Pleasant Valley Rd","Parma","OH","44134",41.3598122952,-81.6856487672,4
"4646","v2a8hI1Tsi1SgFKFWD39qQ","Wasabi Restaurant","2123 E79th St","Cleveland","OH","44103",41.5006633,-81.6332655,4.5
"4660","15RvAvPxUBl3HmnGMJdtTQ","Osaka Sushi & Chinese Restaurant","2101 Green Tree Rd","Pittsburgh","PA","15220",40.3907468,-80.0704386,3.5
"4667","ccdcyzc1oSucd-qRlnYR0w","New China Inn","4609 Centre Ave","Pittsburgh","PA","15213",40.4521688,-79.9516977,2.5
"4902","wCB9mquz6W0ZuO5pPZXeDg","Lao Sze Chuan Chinese Restaurant","608 E University Ave, Ste 105","Champaign","IL","61820",40.1166544,-88.229763,3.5
"5027","Rmdv8qikuGCecgRGVPWMQA","China House","425 Water St, Ste 12","Chardon","OH","44024",41.5796651,-81.2109982,4
"5040","aC9D8lFr5k9pWU0IBdEb0g","Chang Jiang Chinese Kitchen","631 S Main St","De Forest","WI","53532",43.2394189,-89.3425469,3
"5044","79G_4PgWIO1BPve3D1tD_Q","New Ming Restaurant","1590 S Hawkins Ave","Akron","OH","44320",41.065849,-81.570248,2.5
"5065","BQasaL9XWUhlFndmKYtMHw","New Gum Do","5755 Royalton Rd","North Royalton","OH","44133",41.31346,-81.725763,3.5
"5094","kF1Rr2bMPujucUihlitT2g","Asia Garden","19648 W 130th St","Strongsville","OH","44136",41.2781816355,-81.7852382394,4
"5121","5L-dBWit8Y90bnP3nsAauQ","China Bay","478 N Abbe Rd","Elyria","OH","44035",41.387391,-82.078457,4.5
"5125","GKmbGnQ2WmlU7ntVPI4mYA","Golden Crown Chinese Restaurant","2292 Kresge Dr","Amherst","OH","44001",41.4166352,-82.207212,4
"5258","nZRJu778hO66F11QUS53nA","Li Garden Restaurant","34650 Vine St","Willowick","OH","44095",41.64082,-81.4416804,4
"5268","BT8bk6rOQ4kj8TD-hfepGQ","China Star","5194 Detroit Rd","Sheffield Lake","OH","44034",41.4249232,-82.0813203,3
"5297","hMgIF04rrJ7oB1lGIpFt5w","South China Restaurant","25 E Springfield Ave","Champaign","IL","61820",40.112114,-88.241292,3.5
"5355","tVcnGCg8AICT_hoI-4gMsw","Szechuan Garden","6654 Mineral Point Rd","Madison","WI","53705",43.061601,-89.4965481,4.5
"5499","jtvy90-8KNih9-LanDTiOg","Pacific East Japanese And Maylaysian","100 E Main St","Kent","OH","44240",41.1535545,-81.3580092,4
"5501","EY37X3ESjNu14g9Xe4lyFQ","Manchu Wok","46402 Middleridge Rd","Amherst","OH","44001",41.3799654,-82.2240315,1
"5531","kD1u5HwZpWOH2bAU_W0ARQ","Peking Chinese","5900 Som Center Rd, Ste 11","Willoughby","OH","44094",41.6072477,-81.4411265,3.5
"5581","v8jZKf_YN7ayVy6ksyoiKg","Bamboo Garden","1720 Greensburg Ave","North Versailles","PA","15137",40.386652,-79.821246,3
"5596","g74ClehJVU5h-29-Bx5xwQ","King Dragon","3310 Kent Rd","Stow","OH","44224",41.1586848,-81.4416184,4
"5622","jKJr7aPdTZ5kiQw0g40yJQ","King Yuan","35840 Chester Rd, Unit 4","Avon","OH","44011",41.4683699,-82.0155941,3.5
"5676","iT9KMTR8NqYwSCW-zMUOxw","Tai Pei","1124 Freeport Rd","Pittsburgh","PA","15238",40.4876529256,-79.8806163564,3.5
"5766","Bfh_ON-LQUcJerjcDF5KNA","Best Wok","907 W Marketview Dr, Ste 8","Champaign","IL","61822",40.137698,-88.260784,3
"5774","mchIGapc-1lRQKcsZhD93A","Panda Restaurant","846 5th Ave","New Kensington","PA","15068",40.5647288,-79.7647173,4.5
"5805","wftmt-n8OUA4Ng3bWWH5dw","Wonton Gourmet & BBQ","3211 Payne Ave","Cleveland","OH","44114",41.5089027,-81.6662795,4.5
"6006","wrV2yRrSAoVeXpvR7n-czA","China One","11708 Buckeye Rd","Cleveland","OH","44120",41.480668,-81.6014399,3
"6153","jhP9rUsV-KvgHu1n--7Q3w","Khoo's Garden","1130 Perry Hwy, Ste 26","Pittsburgh","PA","15237",40.5477169,-80.0355297,3.5
"6233","gTRTzLhbl2uDd_JvB4PsyQ","China Palace","4059 William Penn Hwy","Monroeville","PA","15146",40.4403653,-79.7697106,3.5
"6239","6_7_aSycZlRsfKENFiIi6g","Happy Wok","17 Eastpark Ct","Madison","WI","53718",43.147082,-89.287972,3.5
"6250","RNkVt3T_3DQjXbXTM2DIjg","China Chef","33382 Walker Rd, Ste F","Avon Lake","OH","44012",41.4940518,-82.0442893,3
"6283","vYRxMRpdUES85ZEpiQwjgg","Chopstick House","2798 Robinson Blvd","Pittsburgh","PA","15235",40.4604599,-79.8655148,4
"6336","xDnkfWCyaUdR6iMoxnuWyg","Dagu Rice Noodle","3710 Payne Ave","Cleveland","OH","44114",41.5095919,-81.662275,4.5
"6364","A8jt8v7bixb_DswY2uJQaw","Red Bowl","28500 Miles Rd","Solon","OH","44139",41.4235764,-81.4774021,3.5
"6403","4jO_VdrdM3OFGr9VDkySPA","Black Mountain Spirit School of Chinese Kung Fu","107 E 8th Ave","Homestead","PA","15120",40.4062449,-79.9119803,3.5
"6405","h0kDxnRpBXyJ1v17uSDnzw","China Garden","14867 Detroit Ave","Lakewood","OH","44107",41.4843352,-81.8011668,3
"6413","XuxMAIKquXNe6fy0-HmZ8A","Asian Chao","26300 Cedar Rd","Beachwood","OH","44122",41.498488,-81.4941423,4
"6541","TE5K9GVy9rKrovzUBOefYg","Perspectives Wellness","24800 Chagrin Blvd, Ste 303","Beachwood","OH","44122",41.4638463,-81.5034119,5
"6643","gGeC3-QX-ZH1kxnpmUwQ9A","China House","2001 Lincoln Way, Ste 9","White Oak","PA","15131",40.3359617418,-79.8044264784,2.5
"6677","yBHltbm3DqNaKgBgTMpxsA","Happy Buddha Cafe","2173 S Green Rd","Cleveland","OH","44121",41.5006901722,-81.518359211,4
"6735","4_sXnBAHU3lGxVfPUn0CNQ","Number 1 Kitchen","10670 Lorain Ave","Cleveland","OH","44111",41.465858,-81.761293,2
"6837","i4CF-bIEfNeYoQ87klS78Q","Benichopsticks Restaurant","1025 Waterdam Plz, Unit D","Canonsburg","PA","15317",40.262821,-80.133828,3.5
"6840","1LqshDanHwtKeX--X0hbwQ","Win-Win Kung Fu","2713 Murray Ave","Pittsburgh","PA","15217",40.4285392,-79.9243555,5
"6886","BrORoLCE5zVY6ekUb6omNA","Mad Noodles","2017 E Carson St","Pittsburgh","PA","15203",40.4287193,-79.9769083,3.5
"6891","_VYUU5HPLYasd-xdKLimNA","Castle Place Chinese Restaurant","331 Mount Lebanon Blvd","Pittsburgh","PA","15234",40.369991,-80.034378,4
"6970","OaHJvi10dJbMIaQXg5e2Ag","Nam Wah Chinese Vietnamese","392 W Bagley Rd","Berea","OH","44017",41.373633,-81.867219,4.5
"7001","PhNdyQTtZjOQ1bqoT4S3oA","China Bay","6820 Biddulph Rd","Cleveland","OH","44144",41.431217,-81.7332203,4
"7039","W7KtVjq4R_5F5EwbCBENQw","Golden Kitchen","402 W Center St","Monticello","IL","61856",40.028317,-88.574491,4.5
"7041","-cnAmACYQpwRyfjuZHay3w","China Wok","8021 Broadview Rd","Broadview Heights","OH","44147",41.347579,-81.6839395432,3
"7057","dF-_fcrNyk4iZ5Pc1mr-wA","Jade Tree Chinese Cuisine","7673 Mentor Ave","Mentor","OH","44060",41.6596835,-81.3673637,4
"7115","p2RqycIW2jzjbQnkEw5lkA","Noodles & Company","6520 Monona Dr At Pier 37","Monona","WI","53716",43.0470458,-89.3239739,2.5
"7183","QdganL5AW9E_fNoRVroLig","Golden Wok","405 E University Ave","Champaign","IL","61820",40.1160086,-88.2328539,4
"7211","MA465c4XL7_m9p_6_ztRsw","Me Lyng Restaurant","213 W 8th Ave","West Homestead","PA","15120",40.405053,-79.913952,3.5
"7272","HzE3NnlAzIcqiHDydpvzrQ","P.F. Chang's","3265 W Market St, Ste 100A","Akron","OH","44333",41.132856,-81.616873,3
"7352","ijY4C4ut4M9xg3QvK2R2pg","Li Wah","2999 Payne Ave, Ste 102","Cleveland","OH","44114",41.5083668054,-81.6693706559,3.5
"7439","iH-BDuPiIV1Eag82oqXmAQ","Frankie's Wok","8926 Brecksville Rd","Brecksville","OH","44141",41.3192925,-81.6271283,4
"7466","ZKBUoCqTpwMtmImz64DGyQ","Hong Kong Express II","529 Ct Pl","Pittsburgh","PA","15219",40.437018,-79.997166,3.5
"7496","FqOjyZyVpIloRpoipoM1qw","Ming Moon Chinese Restaurant","12758 Royalton Rd","North Royalton","OH","44133",41.3154447,-81.783175,3
"7575","mdNbptkRKH1Jj2iRqBgq_g","Golden Bowl","649 Chestnut Commons Dr","Elyria","OH","44035",41.3470428862,-82.0669480786,4
"7625","2Z6FGB5vfbSrvNyeXTqARg","Cleveland Acupuncture","25200 Chagrin Blvd, Ste 103","Beachwood","OH","44122",41.4639256,-81.500532,4.5
"7702","o2UAUbXSNRrqleXtSMLniA","Forever Rosemary","472 44th St","Pittsburgh","PA","15201",40.4665086,-79.9539413,2
"7803","YZItTPlVWeq13bfAJtT2-g","China House II","7400 Church St","Swissvale","PA","15218",40.4214683,-79.8898717,3
"7813","QmNrHxN7UahtdliH_kAuUg","Ka Mei","2209 Murray Ave","Pittsburgh","PA","15217",40.4324863,-79.9228558,3.5
"7818","1p5izA5Py5zN7CuNAxPkvw","No. 1 Chinese Restaurant","27333 Detroit Rd","Westlake","OH","44145",41.4665,-81.923267,2.5
"7863","LLGGe9k7NTVy1Z2wH1_Uew","Tong's Cuisine","228 Semple St","Pittsburgh","PA","15213",40.4394597,-79.9581963,3.5
"7908","Lku_keJf44D0LxbRAIZOcg","QQ Express","1401 University Ave","Madison","WI","53715",43.0732593799,-89.4093034789,3.5
"7917","qwkzD5_OjQ2eYv0EIKxV_g","Fu Sheng","4071 Lee Rd, Ste 160","Cleveland","OH","44128",41.448844,-81.563472,2.5
"7932","ndq4rJcFLMbMGU_gK5u79Q","China Wok","1202 5th Ave","Pittsburgh","PA","15219",40.4384747,-79.9887883,3
"7974","CvP516pjOdcJJkaMjl8rPw","China Kitchen II","5607 Turney Rd","Cleveland","OH","44125",41.4105627,-81.6008417,3.5
"8016","AQ76VSVrSPajc2qFZDmzeg","Panda Express","106 E University Ave","Urbana","IL","61801",40.1168417,-88.206665,3
"8186","4rSHsXO4ozQoD0hoPCDatQ","China Express","13621 Detroit Ave","Lakewood","OH","44107",41.4851133,-81.7872673,2.5
"8192","6lgkTtACpJR5Kijkc050KQ","Dragon Garden Restaurant","9415 Olde 8 Rd","Northfield","OH","44067",41.3162454,-81.5385224,3.5
"8205","M7SEPUqtCFtZJ8O8hFGY4A","Panda Express","3244 Steelyard Dr","Cleveland","OH","44109",41.4655173,-81.6875202,2.5
"8237","Iy-UNkwa3j9MSeG_SZhUvg","Jennifer Whiteside","2008 Murray Ave, Ste B","Pittsburgh","PA","15217",40.4344721,-79.923045,5
"8357","M6BiGk76UgrYBM2sGPusUA","Maing Wok Kitchen","35085 Center Ridge Rd","North Ridgeville","OH","44039",41.3928108,-82.0063744,2.5
"8366","gnqHyA6gY2-m9S-FKt6Xqw","Cravings","603 S Wright St","Champaign","IL","61820",40.1112203703,-88.2290604075,4
"8414","5Y-p9QJLrg2P0I8RjJ9TTQ","Chang Jiang","4929 Commercial Ave","Madison","WI","53704",43.1056341465,-89.2967010739,3
"8425","hMTzciZhfmugG2EVAPANcg","Golden Wok Inn","4976 Library Rd","Bethel Park","PA","15102",40.3429128,-80.0273109,3.5
"8501","t_SvwKRaMyNHj2NOMvMv1Q","Phoenix Express","3063 Graham Rd","Stow","OH","44224",41.1670585223,-81.4041273578,4.5
"8516","9X3XAKb51B4meUDC_NFnsA","Golden Dragon Chinese Restaurant","114 Tropiano Ln","Irwin","PA","15642",40.3245138,-79.7011549,5
"8631","bD_vqSSU_abcCT0oCzN1xA","Wok of Life","","Pittsburgh","PA","15212",40.4828051,-80.0367259,2.5
"8677","bO3VN1ct-6zD8Pd0AS38rg","Wai Wai Buffet & Grill","113 Cavasina Dr, Ste 8","Canonsburg","PA","15317",40.2634203,-80.1738365,2
"8766","YU7KZJP0LsLcvU4eIHhtfw","Hunan Wok Chinese Restaurant","1822 Homeville Rd","West Mifflin","PA","15122",40.365078,-79.8718048,3.5
"8963","fjE-jiwnTQysz-rLl6YMQg","Amazing Wok","2910 W Liberty Ave, Ste 1","Pittsburgh","PA","15216",40.3948671,-80.0347286,4
"9191","p2X4WdGMsi26t_6hN3Hz4w","Mekong Restaurant","1429 Potomac Ave","Pittsburgh","PA","15216",40.395543,-80.034904,3.5
"9226","rcnjeruxT_-zThMekbMUbA","Panda Express","2855 State Road","Cuyahoga Falls","OH","44223",41.149599,-81.5079981,2.5
"9363","tHsrPOEx-VY6a6urWWT0Xw","Lily Chinese Restaurant","27091 Bagley Rd","Olmsted Township","OH","44138",41.3719855,-81.9424849,2
"9374","U6ure4FjwC9lOKmlZw6gTQ","Chang Jiang","984 W Main St","Sun Prairie","WI","53590",43.1816362,-89.2294487,3.5
"9428","dHJ4PT5C9mr6QPs4o_DaSA","Golden Dragon","1634 State Rd","Cuyahoga Falls","OH","44223",41.1278723,-81.5087648,3.5
"9441","sAhKuHKCKu9p8gy9vVsXnA","Hundred Flowers","28898 Lake Shore Blvd","Willowick","OH","44095",41.629209,-81.483417,3
"9537","php_sWMWyXs7Qi5UyTUrLg","Asian Star","182 Ohio River Blvd","Leetsdale","PA","15056",40.559405,-80.205455,3.5
"9723","UzW_6PaLFzPjP7_2Czk3Wg","China King Chinese Restaurant","1120 Pearl Rd","Brunswick","OH","44212",41.2447894,-81.8417745,3.5
"9730","dqnShtl304m2oO1Nel5GSg","Feet Paradise Reflexology","2024 Murray Ave","Pittsburgh","PA","15217",40.434066,-79.9230427,4.5
"9772","xMn3YvKFLqpBab0icUou1g","Chen's Dumpling House","505 State St","Madison","WI","53703",43.0746589,-89.3939651,4
"9809","sOaeX1zQWuqbPcclvjtdeA","P.F. Chang's","26001 Chagrin Blvd","Beachwood","OH","44122",41.4650887865,-81.4937630296,3
"10026","keQlXWfz2K7GukqaReVyow","Ichiban Sichuan","610 S Park St","Madison","WI","53715",43.060654,-89.4011292,3.5
"10059","m5t6Ork5uMHRvIlCmP6ULQ","China Chef","6328 Pearl Rd","Cleveland","OH","44130",41.3887888,-81.7646407,3
"10146","4wzfwVrijdT--mWTESjw9g","China King","205 W Warren St","Saint Joseph","IL","61873",40.1129997,-88.0422169,4
"10169","R-nmyxEGu4fYGJ2JFbMwlQ","China House","10571 Saint Clair Ave","Cleveland","OH","44108",41.5400845,-81.613517,3
"10237","Wqdws1zeQYTzV_7jq1a0hw","Don Don Chinese Restaurant","146 E Main St","Carnegie","PA","15106",40.4079873,-80.0857029,3
"10360","QeJAGJNbaqFuMusPTCoBMA","HuHot Mongolian Grill","190 N Grand Ave","Sun Prairie","WI","53590",43.177678,-89.265592,3
"10450","hQMx2ZbGAa_oxJNpnTZf8Q","The Diner","105 Clinton Ave","Oakdale","PA","15071",40.3984122,-80.1862539,3.5
"10451","CQJGl8n0wqL8WSEsG_yqDg","China King","7087 Brecksville Rd","Independence","OH","44131",41.3697164,-81.6375212,3
"10473","uoV4aDfXbRmvyHSezdn--w","Tai's Asian Bistro","638 S Whitney Way","Madison","WI","53719",43.051829081,-89.4757021905,3.5
"10606","VHtYVZN4-85odLn1T6Z_nA","Malaxiangguo","3608 Fifth Ave","Pittsburgh","PA","15213",40.441333,-79.9586691,3.5
"10641","Z5T-muBHTERxj3jFqhiLHw","Zen Restaurant","2181 Hulton Rd","Verona","PA","15147",40.5262656025,-79.8174745962,4
"10843","1Vbt1GsmtQm2dkC4A2L_-g","Subba Asian Restaurant","700 Cedar Ave","Pittsburgh","PA","15212",40.4534380276,-80.0016119968,4
"11010","8C65DwwnazwYB2z9naHyaw","Golden Mountain Restaurant","27910 Chardon Rd","Willoughby Hills","OH","44092",41.5823398,-81.4842591,3
"11037","bRy4yyU0XXcOJRX5tGQ_dg","Little Hong Kong","34137 Center Ridge Rd","North Ridgeville","OH","44039",41.3975557,-81.9949385,4
"11108","35AWV2l8s2DbBxKbexPU7A","Chang Jiang","2935 S Fish Hatchery Rd","Fitchburg","WI","53711",43.0144898,-89.4274581,3
"11110","qd1QvLRMJMPRQIdhyWmhRg","China Wok Chinese Restaurant","204 S Century Ave, Ste A6","Waunakee","WI","53597",43.189589,-89.4612,3
"11118","7XUDdyFFriUkoSTGBYp1ag","Asian Bistro","455 Penn Lincoln Dr","Imperial","PA","15126",40.4426795,-80.235987,4.5
"11274","mF2EW3twSrFPmT_RVV1-Qg","House of Hunan","18 Public Sq","Medina","OH","44256",41.138556,-81.8643775,3
"11290","1ofeAP5vdjnOSeO5S2pzSg","Panda Express","202 Robinson Center Dr","Pittsburgh","PA","15205",40.451404,-80.162472,2.5
"11356","IpQG7s5l7ba5NxyzTxn7pg","Hunan by the Falls","508 E Washington St","Chagrin Falls","OH","44022",41.426765,-81.3738366,4
"11404","4lHIz3Z-6lAICc_1wq25-A","General Tso's Chinese Food","30 Glacier Edge Sq","Cross Plains","WI","53528",43.1113929,-89.6424937,3
"11477","8LUKD_9rkJoUIIuT9uiDbA","Rice Inn","5041 Library Rd","Bethel Park","PA","15102",40.3411925,-80.025801,4
"11488","1qQ5VkxiBUjbGGdpBN-PUQ","Spicy Tang","607 S 6th St","Champaign","IL","61820",40.1107483422,-88.2305816,2.5
"11605","a39B-BfbCipNkNH7vwCfug","Mid-Summer Lounge","623 E Green St","Champaign","IL","61820",40.1101577,-88.2294649,4
"11685","YAhRuV3oRkwGk3Or9PJ3Ww","Happy Garden","3725 Medina Rd, Ste 103","Medina","OH","44256",41.1378021,-81.8214969,3
"11718","4XGjbI2Ggi-kdgt9eZR83w","World Buffet","2451 W Broadway","Monona","WI","53713",43.046421,-89.352063,2.5
"11746","M5rnBQaFtjYTn3T9NIZwcA","China Dragon","100 E Lincoln Ave","Mc Donald","PA","15057",40.3687253,-80.2347236,3.5
"11760","VxwcmqZ56tzPr7ZbLxlhTw","China Wok","6771 University Ave, Ste 107","Middleton","WI","53562",43.0967246413,-89.4980389997,3
"11772","giiWXI4DcXIdvoGmeIOeEQ","Top Food","103 W Kirby Ave","Champaign","IL","61820",40.0977343,-88.245719,3
"11777","_AKdBFzkl7GY-daxUCCbVA","P.F. Chang's","1600 Settlers Ridge Center Dr","Pittsburgh","PA","15205",40.4394636778,-80.1505315304,3
"11820","uno5w5Zkhwn-yFkJgFuYOw","Asian Cuisine","4528 Broadway Blvd","Monroeville","PA","15146",40.389637485,-79.7659568602,4.5
"11835","fVLWfO97Ddac26ptnMuE3A","Tang's Wok","25780 Miles Rd","Bedford","OH","44146",41.4237519,-81.4970228,3
"11889","ve7-f5urgRoFvhoez9eUjA","Tai Wah Asian Cuisine","9160 State Rte 14","Streetsboro","OH","44241",41.2396916527,-81.3421118345,4.5
"11893","afdthOntL8hfhomIFX-NWg","Zen Asian Diner","5100 Butler St","Pittsburgh","PA","15201",40.4783482,-79.9554307,3
"11895","DwmAsemahJywywhuqv5J1Q","Sichuan Gourmet","328 Atwood St","Pittsburgh","PA","15213",40.4389524203,-79.9551590459,4
"11927","h9O1Q4kEklvYdwVsffTpMA","Dragon","3668 Center Rd","Brunswick","OH","44212",41.2385172831,-81.8243254625,4
"11959","z3hD4GX5gSJtuqNhN-o2cg","I Wok","113 Calvin St","Savoy","IL","61874",40.0590115158,-88.2522375155,4
"11974","S1mm3JFYmuewmKfUK8M8iw","Chai's Pittsburgh Fusion","1000 Airport Blvd, Fl 3","Pittsburgh","PA","15231",40.4961011227,-80.2459079054,3.5
"12011","fjRVqTl82Sql3GarA_QzIg","Tipsy cow","2816 Prairie Lakes Dr, Ste 107","Sun Prairie","WI","53590",43.168956,-89.267735,3.5
"12023","4v_RbefzvGkixXXJkn-bzw","Szechwan Garden","13800 Detroit Ave","Lakewood","OH","44107",41.4860001,-81.813755,4
"12061","6tY0tn39Mb8FCLYBAXXOUw","China Renaissance","29336 Lorain Rd","North Olmsted","OH","44070",41.407014,-81.946028,3.5
"12164","WdtmkT5lWzW167T3rBxKsw","China House","22316 Lake Shore Blvd","Euclid","OH","44123",41.6093293,-81.5256507721,3
"12552","gyDTYm_NDWXEHBPGnL-oRQ","Noodles & Company","232 State St Johnson","Madison","WI","53703",43.0749274,-89.3895327,3
"12568","UoAPfKoSKJ8B5uXZ2prfeQ","Moonstar","768 N Main","Oregon","WI","53575",42.9374286,-89.3829876,3.5
"12644","cUfSGsjKP7ma8FbFqTmZLA","Honeymoon Chinese Restaurant","2021 Clay Pike","Irwin","PA","15642",40.3043179,-79.7265755,4.5
"12713","cxVp-a28Cp7lavjaPMvK5w","Social House Seven","123 7th St","Pittsburgh","PA","15222",40.4440719,-80.0003438,3.5
"12734","VUDwlypqw1-DTK_lfEP4jg","Panda","238 Crafton Ingram Shp Ctr","Pittsburgh","PA","15205",40.441887,-80.07068,2.5
"12754","bLh4ysq5RsbzCNSjqHhwyw","Hong Kong Cafe","2 S Mills St","Madison","WI","53715",43.0675283,-89.4043358,3
"12760","baedk40VCeup34ltsDsAHA","China Express","465 Valleybrook Rd","Canonsburg","PA","15317",40.2795221,-80.084266,4
"12784","GV5jI4xbBLNiqujLIFrcuw","China House","333 Allegheny Ave","Oakmont","PA","15139",40.5159282,-79.8437835,4
"12811","ui4fyPJ_HRm4HPkEmIHQOA","Chef Chen Chinese Resturant","7211 Saltsburg Rd","Pittsburgh","PA","15235",40.477723,-79.788716,4
"12819","3BkMnrNVkG_szOP0wQlX5A","C-U LaLa Noodle","410 E Green St, Ste 13","Champaign","IL","61820",40.1106376,-88.2324833,1.5
"12823","QlAPX3c0Vm2dU_w3puIAIw","Double 10 Mini Hot Pot","1272 S Park St","Madison","WI","53715",43.0529651478,-89.396253417,4.5
"12890","3_STYcEwVsieJPo0GWjxLw","King Fong","14055 Lorain Ave","Cleveland","OH","44111",41.4543631,-81.7915459,4
"12955","yGdO0huBvnAhyEX7fZO7og","Honeymoon Chinese Restaurant","6348 Library Rd","South Park","PA","15129",40.290431829,-80.028886148,3.5
"13053","kJtijhRR8fl4QIrj-oxf9g","Golden Lily","6253 Pearl Rd","Cleveland","OH","44130",41.3910537,-81.7606659,3.5
"13090","GfYzz2Dnnn0CqeDqROAKTQ","China Inn","4702 Cottage Grove Rd","Madison","WI","53716",43.0845532,-89.3010694,2.5
"13115","7sz9Rw1dbIEfLy-L9qB3Tw","Chopstick Chinese Restaurant","11332 Euclid Ave","Cleveland","OH","44106",41.5084707891,-81.6051659116,3.5
"13184","N3ZbTZfWC_oyIUxuX9KJYA","Teriyaki Express","13201 Superior Ave","East Cleveland","OH","44112",41.523271476,-81.5907681361,2
"13197","DtAND35Vc4dY7usrGtbR7w","Ho Wah","2101 Richmond Rd","Beachwood","OH","44122",41.500679,-81.496429,3
"13198","wNlpUnbCwAsMAu9Z1wc2nw","Imperial Dragon","8310 Tyler Blvd","Mentor","OH","44060",41.682391,-81.342572,3.5
"13248","2F6dAex41iqsoxjSX4xAZA","Dragon Gate","6681 W 130th St","Parma Heights","OH","44130",41.3822818,-81.7841118,4
"13368","swfdlAMXwV8OjYD5nkA6nQ","China Palace of Wexford","10441 Perry Hwy, Ste 12","Wexford","PA","15090",40.6068273,-80.0525208,3.5
"13399","eW6HLU-M3xJOpGyKLrWxUg","Asian Cafe","701 Cooke Dr","Pittsburgh","PA","15234",40.3689607,-80.033156,4
"13422","h0Wmyzb8q0bXbrqmWqVvfQ","Jackie Chen's Dragon Towers Chinese Restaurant","17452 Lorain Ave","Cleveland","OH","44111",41.4514697,-81.8188615,4
"13498","KtTGy-OBBqPSs774NnEl4Q","Cleveland Chiropractic and Integrative Health Center","8803 Brecksville Rd, Ste 13","Brecksville","OH","44141",41.3222428,-81.6260276,5
"13538","zOHQdGK6D3S0rvyNsrQi0Q","Royal Buffet & Grill","1930 Buchholzer Blvd","Akron","OH","44310",41.1155648,-81.4732174,3
"13576","aURWnSm0BrHhp-0DSXFJww","House of Hunan","7571 Pearl Rd","Cleveland","OH","44130",41.359141,-81.814601,4
"13606","CbsS6VvPsIvpytUbLAu71Q","Oriental Palace Buffet","3364 Warren Rd","Cleveland","OH","44111",41.4624927,-81.8032376,3
"13635","74O-ZufCco3hBcMQc3Vf8Q","iNoodle","1060 Morewood Ave","Pittsburgh","PA","15213",40.4454444,-79.9432431,2
"13637","fZfoi-VMMcv9Uc4QYgbOHw","A-Wok Restaurant","3871 Medina Rd, Ste B","Akron","OH","44333",41.13698,-81.638452,4
"13680","dmiSOfKvwfjNHMQddKGG_Q","Golden Gate Restaurant","700 Saint Clair Ave","Clairton","PA","15025",40.2933624,-79.8892245,3
"13687","ErGfEO3dZB37kxYjTZUXAA","Red China","909 5th Ave","Coraopolis","PA","15108",40.518369,-80.166268,3.5
"13697","JftoP9r6TT98v83hfY9RZw","Mandarin House Chinese Restaurant","10393 W Pleasant Valley Rd","Cleveland","OH","44130",41.36342,-81.7580821,3.5
"13760","B10A-q2fskHqLx5miQpmOw","WFH Oriental Food Market","2306 Penn Ave","Pittsburgh","PA","15222",40.4527925,-79.9811055,4
"13776","BIqsItY0vyOshMpJ0I4cPg","How Lee Chinese Food","5888 Forbes Ave","Pittsburgh","PA","15217",40.4377788,-79.9195544,3.5
"13818","imBVeP4aA-aLTdPD-t8_WQ","China Wok","1724 Fordem Ave","Madison","WI","53704",43.0945835,-89.3641631,3
"13878","yAkaDc6MWX3dy8bnEcCrRQ","Imperial Garden","2039 Allen Blvd","Middleton","WI","53562",43.090642,-89.485169,3
"13912","FOIQ49HJ6Y5fPl8QYr34XA","Hunan Inn","3939 Washington Rd","McMurray","PA","15317",40.2706066,-80.1262667,3.5
"13999","hUtc2gE-UIcvoQ9tXUJMUA","Golden Place the Chinese Restaurant","29 Erie Rd","Tallmadge","OH","44278",41.1004824,-81.4374514,4
"14051","-ORqiS4L-8pq3dLsUazXTg","Asian House","1300 Hoffman Blvd, Ste 1808","West Mifflin","PA","15122",40.3836653131,-79.8676539436,3.5
"14052","pGjtxXBq4tZcdKdgTU-Tww","Little Hong Kong","18332 Bagley Rd","Middleburg Heights","OH","44130",41.3732701,-81.8296017,4.5
"14094","UslSiDSUTCaq62FMpWK6Lw","China Max","1000 Ross Park Mall Dr","Pittsburgh","PA","15237",40.5428252,-80.0075487,2.5
"14113","lQMZ2Rd0jGf1ZpekZpr1MA","China Sea","417 E 200th St","Euclid","OH","44119",41.5946372,-81.5399086,3.5
"14114","USRXU4ASBAFSKhlk-KVrCw","Bo Loong","3922 St Clair Ave NE","Cleveland","OH","44114",41.5157095,-81.6646469,3
"14158","7aZf5c1UNotq4MabBXMZLA","Sichuan Gourmet","1900 Murray Ave","Pittsburgh","PA","15217",40.4358226,-79.9230998,3.5
"14175","XBVp2d7UVJRxc70QcjvKIA","China Fortune","400 Swiss Way","Elizabeth","PA","15037",40.280573,-79.83535,3.5
"14304","v-E_fwn4CesE_rdmxvwvSQ","Panda Express","21085 Center Ridge Rd","Fairview Park","OH","44126",41.4613136116,-81.8538868368,2
"14429","v_YaNPJbP1XKGG-R_vUZ1Q","Golden Gate Chinese Restaurant","16009 Hilliard Rd","Lakewood","OH","44107",41.4766034,-81.8091383,3.5
"14590","Ny7Y1Rlhwi5n4LHIpUA21g","King Dragon","20906 Drake Rd","Strongsville","OH","44149",41.290602,-81.8567133,3.5
"14621","e7M2GgkCfDYTxdPN1LL1sQ","Wai Wai Chinese Cuisine","4717 Liberty Ave","Pittsburgh","PA","15224",40.4620688,-79.9491308,3.5
"14656","VfWX3UCKvUnVktdOuR8TwA","DumplingHaus","540 N Midvale Blvd","Madison","WI","53705",43.071461,-89.452308,4
"14673","odInwsyYJlTelH-X-L9Dvg","Madison's Family Wellness","222 N Midvale Blvd, Ste 1","Madison","WI","53705",43.069229,-89.451678,4
"14755","R_Z2wQ5dSBihyGVwDFKaeg","East China","16834 Chagrin","Shaker Heights","OH","44120",41.4642597,-81.5617282,3
"14879","r5Ka92j1QFklGABmJKD03Q","Imperial Wok","1883 W Market St","Akron","OH","44313",41.1127402,-81.5756281,3.5
"15046","ImzivIgEc3XHpAYJyMQnxA","Ming Cheng Restaurant","1687 E Main St","Kent","OH","44240",41.1558329,-81.332927,3
"15108","i55cm4i5C7fSCVONIQ8DRg","New Wong's Chinese Restaurant","30160 Euclid Ave","Wickliffe","OH","44092",41.615892,-81.4609137,4
"15122","m4DwPVxmFDQE_FnGIOa3cQ","Sunny China Buffet","1703 Philo Rd","Urbana","IL","61802",40.0976392,-88.1912166,4
"15152","vEwazCciremwBgkRJgfXtw","Kiyoshi","6506 University Blvd","Coraopolis","PA","15108",40.5189266,-80.2192076,3.5
"15370","nDT0T3yW6G89vzdx4p_P4A","Jin House","2255 Kresge Dr","Amherst","OH","44001",41.4170213984,-82.208032608,3.5
"15396","-865Ps6xb3h1LP67JcQ3mA","Rainbow Garden","202 E University","Urbana","IL","61801",40.1167919,-88.205811,3
"15431","Kxlt3ZNmTzbxRFYelWAmKA","China Chef","15200 Puritas Ave","Cleveland","OH","44135",41.435459,-81.8028408,3
"15468","SbWqeztXrCTsYMsf6KGYvg","Wok of the Falls","8185 Columbia Rd","Olmsted Falls","OH","44138",41.373432,-81.901042,3.5
"15662","D0KX5BQsbaIcWd-TpQ4wLg","Peking House Restaurant","806 Eastwood Dr","Mahomet","IL","61853",40.196657487,-88.3959178407,4.5
"15705","ejdBoVvEdn5fdycuJRen8Q","First Wok","1805 Philo Rd","Urbana","IL","61802",40.0962948,-88.1920978,4
"15708","7HVeDuuAy5NM5pdeZJ-lzg","Fun Buffet","9361-9391 Cleveland E Liverpool Rd","Streetsboro","OH","44241",41.2409579527,-81.3521957133,1
"15758","7U73RqIg6JA0WThxWUV3uA","Jade Grille","670 Washington Rd","Pittsburgh","PA","15228",40.3805957,-80.0448481,4
"15789","LbeJgPgKKHw5qH0f02NHEQ","Chinatown Inn","520 3rd Ave","Pittsburgh","PA","15219",40.4371064013,-79.9973292903,4
"15831","GeZiOW34ZL6jC9g-mq9QvA","Hop Hing","5630 Wallings Rd","North Royalton","OH","44133",41.3305464,-81.7263279,3.5
"15848","tZB8K6RP7BPou0X2tZ-hDg","China City","6080 Steubenville Pike","Mc Kees Rocks","PA","15136",40.4433533463,-80.1450877457,3
"15956","7OKQ4ENVfPfxtDqFOG7x0g","A8 China","608 University Ave","Madison","WI","53715",43.0734206,-89.3961792,2.5
"15969","pi1UM_U1hq-DwDYqQRK1Wg","Hunan One","7901 Euclid Ave","Cleveland","OH","44103",41.5044946,-81.633217,2.5
"16025","mvhokWwVKgfE-koLlc4VEw","Auntie Lee's Chinese Kitchen","49 E Green St, Ste B","Champaign","IL","61820",40.1101985,-88.2402729,2.5
"16033","vsoEZauF4lrADIqCYXySFQ","Chopstix","202 E Green St, Ste 1","Champaign","IL","61820",40.1105528,-88.2366073,3
"16125","EEAtafGPtPhwERoM3onXuw","Panda Chinese Kitchen","590 W Pike St","Canonsburg","PA","15317",40.2581081,-80.203501,2.5
"16130","vAyQDNs9lu_8hT20lleGqg","China Cafe","637 Brown Ave","Turtle Creek","PA","15145",40.425353,-79.834881,2.5
"16205","ff-gd07sG0Y_4i67LqORSA","Tokyo Hibachi and Sushi","5990 University Blvd","Moon","PA","15108",40.5212671,-80.2197775,4
"16410","Bv1AGJ3p_X35tqUcVDrpHg","China King","33125 Center Ridge Rd","North Ridgeville","OH","44039",41.40475,-81.982606,3.5
"16470","TTVXY5vOJDqC0_Je8UhK8A","Chang Jiang Restaurant","5710 Raymond Rd","Madison","WI","53711",43.0325352,-89.4780944,3.5
"16547","jfK-_0x_r7Qgdg2wj60iAQ","Smiles Chinese Food","500 W Aurora Rd","Northfield","OH","44067",41.3135096898,-81.5569987893,3
"16565","eXJEiAuNRLbU5EzdAkj9yQ","Blissful Foot Spa","27629 Chagrin Blvd, Ste 102","Woodmere","OH","44122",41.4625492,-81.4829624,3.5
"16575","yauL5BpUTGukejbJskXl_g","China Park","532 Monongahela Ave","Glassport","PA","15045",40.3264474,-79.8926996,4
"16757","uSANDilamc1QSiCinFSKYw","World Buffet","499 D'Onofrio Dr","Madison","WI","53719",43.057758331,-89.5138889074,3
"16824","QvKN1zh_BCFai6oDCx3d_g","Spring Garden Chinese","4737 W 130th St","Cleveland","OH","44135",41.4251187,-81.7797488,3.5
"16888","MA5R-mV6ljRM1MK6Mdiv5g","Panda Express","2000 N Neil St","Champaign","IL","61820",40.142039,-88.244042,3.5
"16955","t4rBeSFDfwvaIbLftLlhig","Resolution Health Collaborative","345 W Washington Ave, Ste 404","Madison","WI","53703",43.071346,-89.3880049,5
"17118","25CzbDgm1MsT31NhA6KYog","Kasai Kogi Bar","146 E Main St","Carnegie","PA","15106",40.4079873,-80.0857029,4
"17162","BpU9-wcOWyKcVtkvnfRazA","Wok & Grill","120 5th Ave","Pittsburgh","PA","15222",40.4419737,-80.0034017,2.5
"17163","KLvpdtFYUi1I0LNsmIqeJw","Happy Wok","429 Commerce Dr","Madison","WI","53719",43.059889,-89.523622,3.5
"17353","i_t8WTwztuHweRqQ89hmuQ","Panda Express","2521 N Prospect Ave","Champaign","IL","61822",40.1460326346,-88.2585361671,3.5
"17436","OmP2SCE411tncZ8umlP0Ag","China Mountain II","31616 Vine St","Willowick","OH","44095",41.642097,-81.4653488,3.5
"17591","i6CxDaUKAj-HKWijwY9yGg","Tai Pan","15412 W High St","Middlefield","OH","44062",41.463254,-81.091011,3.5
"17649","BBpEOprko-9I8bnon9N0ew","Ni's Express Chinese Restaurant","6064 Broadview Rd","Cleveland","OH","44134",41.3988434,-81.6896375,3
"17650","WcHMfQZzs3G5UVY_zBB2FA","Hop Hing Chinese Restaurant","891 N Court St","Medina","OH","44256",41.1504944,-81.8647894,3.5
"17657","ja7zjowr6ymsVglQXZZ6BA","Great Taste Chinese Restaurant","1803 E 12th St","Cleveland","OH","44114",41.501901,-81.6845327,2.5
"17696","hoGyiTjrri-Sq3-EaO7Kpw","Thai Gourmet","6901 Rockside Rd, Ste 3","Independence","OH","44131",41.395547,-81.641748,4
"17776","DA3Dzic8NAJ0LYnYZG9nyQ","Evergreen Chinese Buffet","1665 E Main St","Kent","OH","44240",41.155117,-81.3338391,3
"17829","MwsGayIlUkXQ46mkmV3jlA","Wok In Heaven","415 Unity Center Rd","Pittsburgh","PA","15239",40.4894052,-79.7771043,3
"17838","hwe7f0QthkND-H4Ekg37qw","New Dumpling And Sushi House","2138 Murray Ave","Pittsburgh","PA","15217",40.4326061,-79.9233686,3.5
"17857","cRTkev8c66o6q6v7FstjLA","Szechuan Cafe","2999 Payne Ave, Ste 145","Cleveland","OH","44114",41.5085099,-81.669681,4
"18030","loXkZgAd70KMjP8ISCnZPQ","China Express","5720 Ridge Rd","Cleveland","OH","44129",41.4067881,-81.7348849,4
"18038","-_DxZ8gKU50sfuZEu4ypKg","Saigon Restaurant and Bar","2061 E 4th St","Cleveland","OH","44115",41.498806,-81.68987,4
"18283","cjKplU8iMakS8Q7ZorzYVA","New China House","4309 Northern Pike","Monroeville","PA","15146",40.4349398,-79.7535085,3.5
"18290","odfX0wO7fOyqa8oobxh96w","Fu Lai Chinese Restaurant","525 Penn Ave","Pittsburgh","PA","15222",40.442795,-80.003094,2.5
"18329","oaTbZh8B-IVFEwbzJcIOBg","Azan Wok","2352A Golden Mile Hwy","Pittsburgh","PA","15239",40.4619795636,-79.704999769,4
"18354","zXJilaBN28oUdX7Owf0fRA","Sakura Teppanyaki & Sushi","5882 Forbes Ave","Pittsburgh","PA","15217",40.4378362,-79.9196769,3
"18503","6PUprRU5wMDcFw0pU6Ejvg","Red Sage Health","1251 Williamson St","Madison","WI","53703",43.084276,-89.3625239,5
"18554","nQ9603jcJ_Nk9WBxvSFH_Q","Main Moon","4439 Kent Rd","Stow","OH","44224",41.156902,-81.400806,3
"18626","74wRr6PP6lbaL1YzUcYGAA","Golden Palace Buffet","3607 Forbes Ave","Pittsburgh","PA","15213",40.4408628,-79.9581821,3.5
"18723","hKfuDwUbWJWdQWmXS_g9PA","Yummy Garden","1879 E Main St","Kent","OH","44240",41.1548503606,-81.3291830197,4.5
"18733","Hiqb7coNwQgEoAR9bn5XMg","China House","411 N Main St","Grafton","OH","44044",41.2860414769,-82.0647000521,5
"18767","ZM-ljL_Y6bR4qEYsGHws5A","LaVida Massage","2731 W Market St","Fairlawn","OH","44333",41.1231061,-81.5993855,3.5
"18855","bvTyaYHXupi1c5mbs65RyQ","Great Wall China Buffet","5088 Great Northern Blvd","North Olmsted","OH","44070",41.415672135,-81.9118310469,2
"18863","CuIPocteo1F3LEn1OqUoHg","China Jade","2190 Brookpark Rd","Cleveland","OH","44134",41.4198193,-81.6967548,4
"18903","zG3GJiIrF01bwgP0tQdkZg","House of Hunan","2717 W Market St","Fairlawn","OH","44333",41.1249699437,-81.6013761333,4
"18962","tRrMljYqr48OjWoHDDkSoQ","Hunan Wok","500 Pine Hollow Rd","Mc Kees Rocks","PA","15136",40.4739107191,-80.0972720598,2.5
"18984","HHGuAjkU9gQyxpwTZAJ_aQ","China King","Monroeville Mall","Monroeville","PA","15146",40.429137,-79.796003,3.5
"19003","WghhtS-tqDWMh_W2O13CYA","Panda Express","2100 Warrensville Center Rd","South Euclid","OH","44121",41.5024785,-81.5367239,2
"19033","fy5ZE8oCtEw5Jiu-HjTE_A","China Max","1000 Robinson Centre Dr","Pittsburgh","PA","15205",40.4534555566,-80.1576923579,2.5
"19062","F8ZTmT9pGiSF2jx9FZDjdQ","Zuki Sushi House","899 E Aurora Rd","Macedonia","OH","44056",41.314242764,-81.5064394794,5
"19154","asAHqgKQtCWiBbC3XriSIQ","Chang Jiang","646 S Gammon Rd","Madison","WI","53719",43.0505454,-89.5039768,3.5
"19155","zkW7OAv8Cnb-3SxEBOubTQ","Zhen Choo Chinese Restaurant","268 Yost Blvd","Pittsburgh","PA","15221",40.414095,-79.855779,4
"19209","RwwV2LrIbdquFw6SN-l27Q","NÃ¼joy","11311 Euclid Ave","Cleveland","OH","44106",41.5087236,-81.6059985,3
"19334","p9rvoRXzEf7Y2nTaqnotxw","Lin's Garden","5560 William Flynn Hwy","Gibsonia","PA","15044",40.633042,-79.9397751,4
"19359","OZhRvcJ8WjnvRaRQVirD6w","China Star","3283 W 117th","Cleveland","OH","44111",41.4629421368,-81.76851511,2.5
"19364","rLJsrXyY61bouCfH58PKIA","Asian House","1 Dempsey Rd, Ste 3","Madison","WI","53714",43.0979823,-89.3171363,3
"19448","LV6nlFQTt-KFdtapmsSzUw","Empire Chinese Restaurant","4793 Turney Rd","Cleveland","OH","44125",41.4299916,-81.6152494,2.5
"19541","ubVWVTrw4zvsqnaW22-BMw","Pine Garden Restaurant","2519 W 21st St","Lorain","OH","44053",41.4503616,-82.2040307,4
"19614","e_W6Q-qOHcUR5ZKrwvC2qw","China Town II","2051 W 25th St","Cleveland","OH","44113",41.4835681,-81.7025072,3
"19628","CxV9DJCxc04_xkDRSrfgFA","China Mountain I","14959 Saint Clair Ave","Cleveland","OH","44110",41.5531628,-81.5769338,3
"19662","VGKq16vCdPPHMoryy6XTHg","Natt Spil","211 King St","Madison","WI","53703",43.0745755344,-89.3797444136,4
"19677","IcrFc5IwCcKyGbVmgWjVjg","Red Dragon","213 S Highland Ave","Pittsburgh","PA","15206",40.458491,-79.924781,4
"19693","Jo5wAt5LYqPKYU1-D7-pfw","Hunan Express","112 Barrington Town Square Dr","Aurora","OH","44202",41.3198836259,-81.3489263158,3.5
"19697","cDpUshHyJHDEc19TSTulJw","Urbana Acupuncture","155-A Lincoln Square Mall","Urbana","IL","61801",40.1108024867,-88.2064390182,5
"19705","d0_yLkH7u16tlcvvU-zIxw","House of Pearl Chinese Restaurant","3329 Center Rd","Brunswick","OH","44212",41.2402175,-81.8069358,2.5
"19754","NyGlEmuYcpZSKfk6IwJeSw","Tavernakaya","27 E Main St","Madison","WI","53703",43.074343,-89.381956,3.5
"20081","LRLc0c1pQwa9VSG7EpZRtg","Empress Court","8307 Washington St","Chagrin Falls","OH","44023",41.4143997,-81.3453343,3.5
"20158","jgh9iT5k7JxkeK9gu4VJAw","Koi Sushi","502 State St","Madison","WI","53703",43.0749781543,-89.3934160843,3
"20178","dFywNDTZ1AnxhaEqxlA5Ug","Fuji Buffet & Grill","9130 Mentor Ave","Mentor","OH","44060",41.674609,-81.312389,4
"20311","v630GIZJUVlggrMSDLGclQ","No.1 Asian Buffet","1990 Cooper Foster Park Rd","Lorain","OH","44053",41.418297,-82.2030839,2
"20340","cGQKUOAZm_VHcQOJWbatog","P.F. Chang's","148 W Bridge St","West Homestead","PA","15120",40.4071506495,-79.9160729349,3
"20406","_qyMW3Pme2F--1Q2U0WKWg","Chinese Relaxation Center","89 E Towne Mall","Madison","WI","53704",43.125046,-89.3062163,3.5
"20658","6Qpo9mVLl60gu-ajJvcBLQ","Happy Wok","2409 W Broadway","Monona","WI","53713",43.044919,-89.349625,3.5
"20667","QQSlx-l_cfwkVrNwjV_HgQ","House of Lee Restaurant","8145 Ohio River Blvd","Pittsburgh","PA","15202",40.5100195,-80.0951113,2.5
"21093","yUdpBeR_sBzornB9x90VoA","Acupuncture First","2306 W 17th St, Ste 1","Cleveland","OH","44113",41.480568,-81.6961174,5
"21120","0Z4__YJxeGnYcbx05Mfw_w","Honey Moon Chinese Restaurant","2021 Clay Pike","Irwin","PA","15642",40.305713,-79.726267,2.5
"21318","5It12biyGxe2Dz6kkf7wGQ","Oriental Express","2610 Brandt School Rd","Wexford","PA","15090",40.6150568032,-80.0913698314,3.5
"21359","uA9tzuzID3t5yZ8rhZ1bQw","New China Jade","4313 Walnut St","McKeesport","PA","15132",40.322875,-79.833339,4
"21372","X4CRPHvv-33kjxVJISZpUg","Little Asia","311 S Craig St","Pittsburgh","PA","15213",40.4454519,-79.9485255,3
"21485","xULATz2siGXOPia614mg2A","Lulu's Noodles","400 S Craig St","Pittsburgh","PA","15213",40.445131,-79.9490568,3
"21506","qx-d5K0fugvnrW5AYcTqlw","Teriyaki Express","7060 Denison Ave","Cleveland","OH","44102",41.4620701,-81.7366726,3.5
"21646","2pmOI_mrn1ZWB88IeiOMkA","Wah Sun","12550 Chillicothe Rd","Chesterland","OH","44026",41.5277673,-81.3389531,4
"21715","tQaIWc9qeiB1IU163LKlAw","Panda Express","627 S Wright St","Champaign","IL","61820",40.1105984,-88.2290979,3
"21737","kVXyz0mYd7NaGuGdM_VMeQ","Asian Sweet Bakery","1017 S Park St","Madison","WI","53715",43.0560299,-89.3976643,4.5
"21994","n8LVLEDlros22tjshJX7-w","New Asian Delight","5391 Warrensville Center Rd","Maple Heights","OH","44137",41.414397,-81.536049,4
"22018","Vu6yNbKinh-54QT8i27LCw","Hong Kong Kitchen","2802 Clark Ave","Cleveland","OH","44109",41.470185,-81.701072,4
"22045","Ucph9MH577u6j0zPK93amw","China Star","111 River Pl","Monona","WI","53716",43.0474245,-89.326964,3
"22319","khKH3drFrWAGPhCRUS0hkA","Grand China Restaurant","2388 Jackson St","Stoughton","WI","53589",42.9225553,-89.2497418,3.5
"22329","WPt9WEMSgDER4QYSp8RLpw","China Dragon","11680 Snow Rd","Parma Heights","OH","44130",41.4053424,-81.7682081,4
"22618","GqBP4UM_z2BAJz_ZUzdecA","Eastern Palace","1200 Corporate Dr, Ste 1","Canonsburg","PA","15317",40.299569,-80.174926,4
"22813","Tm2dKN_-DCdZfF2xMWrX7w","Siam Cafe","3951 St Clair Ave NE","Cleveland","OH","44114",41.516503,-81.6649155,4
"22814","BY1_pf7FHUycHOwYEenDlQ","Hunan's Palace","2360 Ardmore Blvd","Pittsburgh","PA","15221",40.415564,-79.848911,4
"22832","e9FftJq9v_porLZT7iSEhg","Imperial Wok Chinese Restaurant","33825 Aurora Rd","Solon","OH","44139",41.3852806091,-81.4384078979,3.5
"22975","rloarAwOAiQWss9kdl41nQ","Jade Garden Restaurant","4450 William Penn Hwy","Murrysville","PA","15668",40.426683,-79.6782316,3.5
"23031","Pawavw9U8rjxWVPU-RB7LA","Richie Chan's Chinese Restaurant","13181 Cedar Rd","Cleveland","OH","44118",41.5014129,-81.5659625,4
"23158","_aX7bPzYQdrIVUJpG_-0zg","Fun Buffet","9421 State Rt 14","Streetsboro","OH","44241",41.2412573166,-81.3525039173,2.5
"23218","Y3pjXqh-kOdaQS3I-nQxQQ","Jackie Chen's Asian Dinner","2199 Brookpark Rd","Cleveland","OH","44134",41.418969,-81.6963523,4
"23276","A5Xd85djipsW546Bq6qIYA","Sesame Garden","202 Shiloh St","Pittsburgh","PA","15211",40.430520655,-80.0075236051,4.5
"23367","_P-N2rDIJ2kHTPstjUWByQ","Golden Ginger","133 Broad St","Elyria","OH","44035",41.368046,-82.100988,4.5
"23381","EbxaQO95C7PUNTmokE70XA","Bamboo Republic Asian Cuisine","1729 5th Ave","Arnold","PA","15068",40.5786181951,-79.7680272866,4.5
"23461","mwKixosYQq8zyx2YAvrkPw","Noble House","60 W Streetsboro St","Hudson","OH","44236",41.2398065801,-81.4427185058,4
"23599","VBhPgceaKWOXT71d3Jp38w","Soba","5847 Ellsworth Ave","Pittsburgh","PA","15232",40.4571033,-79.9296345,4
"23635","0aA5l11oXes0aS6mkN5lMQ","Szechuan China","401 S 1st St","Champaign","IL","61820",40.1128063,-88.2391787,3
"23842","XKOAi4J47i-YEhhHfKkPRQ","China Garden","890 Butler St","Pittsburgh","PA","15223",40.5109338,-79.9461767,3
"23890","471g2XO27o_zF2ZYrwvIeQ","Golden Crown Chinese Restaurant","1624 Mentor Ave","Painesville","OH","44077",41.698112,-81.279524,2.5
"23938","tTDxa8OzmxUkpVifQ-cEWw","Ni's Wok","703 Merchant St","Ambridge","PA","15003",40.5880106,-80.2285805,3
"24008","hex96IDGu3Mjxjfr5t6Zxg","Wen Spa","850 Fifth Ave","Coraopolis","PA","15108",40.5184138,-80.1673436,4.5
"24093","HNW4P0jAhXYRJ_op7OcWCw","Great China","619 N Sherman Ave","Madison","WI","53704",43.1077901,-89.3636289,2.5
"24097","Msq2CBPFaY7Fe7h7R20fOA","Dragon Palace","1714 Main St","Pittsburgh","PA","15215",40.466841,-79.9568091,4
"24107","J_NA-_WNLAJQg7eZwn1dWw","Sesame Inn","2975 Washington Rd","Mc Murray","PA","15317",40.2950002,-80.1013775,3.5
"24135","UEY70uNV3BxMbxjNmg0apg","Golden Palace","1782 Golden Mile Hwy","Monroeville","PA","15146",40.4451678,-79.7128515,4.5
"24224","a58P2BPCCbQgDMbEoLfWzg","Emperor's Palace","2136 Rockwell Ave","Cleveland","OH","44114",41.508385,-81.678449,3.5
"24231","gDQlaDRAjsCx2p_p6oJLjw","China Star","4219 Murray Ave","Pittsburgh","PA","15217",40.4225625,-79.9285714,3
"24259","BCga5CbMqcZLCpxAuln57w","Panda Wok Asian Cuisine","1512 W 117th St","Lakewood","OH","44107",41.480965,-81.769484,3.5
"24290","FDl-B4kuvpAsY8QPgXwQAA","Hibachi To Go","16933 Chagrin Blvd","Shaker Heights","OH","44120",41.4710004741,-81.5667129042,3
"24317","r7Ft2iBJ_dtUpf4YrHHM1Q","Great Garden","1065 E Tallmadge Ave","Akron","OH","44310",41.102361,-81.476592,2.5
"24322","6Ujaabg3MxqEiCeSs6_eJg","Jojos Smokeless World","24137 Lorain Rd","North Olmsted","OH","44070",41.4290639,-81.889677,5
"24329","OiR6kP_mAD47vKU1WiPshg","Asian Wok Chinese Restaurant","24389 Detroit Rd","Westlake","OH","44145",41.4706331,-81.8906794,3
"24366","G-OMrmKRaSumc73LaSbhPA","China Wok","4060 Brownsvile Rd","Brentwood","PA","15227",40.3665113,-79.9815697,3.5
"24457","pJU2t-6Hd_zUosX1Aw4b0Q","First Wok","21051 Euclid Ave","Cleveland","OH","44117",41.569932,-81.5336097,4
"24488","nbFAn60OmDt9reIRk8vilA","Turney China","5851 Turney Rd","Cleveland","OH","44125",41.4034434,-81.5958214,3.5
"24525","a5xUI7TvsNhM5gZr6KowDg","Sesame Inn","711 Browns Ln","Pittsburgh","PA","15237",40.546446483,-80.0190292792,3.5
"24551","kS_xANADJil_EGX6gmMa5A","China City","4225 Fulton Rd","Cleveland","OH","44144",41.4415234,-81.7227367,3
"24643","I2lDmQHDxnUKbEBJuJCW6w","Hunan East","724 Richmond Rd","Cleveland","OH","44143",41.5408481,-81.497809,4
"24752","ATWPQX-ATDRsIO0huW3aSg","The Magic Noodle","5829 Forbes Ave","Pittsburgh","PA","15217",40.438258,-79.9218718,4
"24781","f1K6hzQecl-sJFYRUHvDDQ","Szechuan Spice","5700 Centre Ave","Pittsburgh","PA","15206",40.4571291,-79.9334864,4
"24847","zYb8dR4tsolqeJRj8x4tdw","Dumpling Noodle BBQ","715 S Neil St","Champaign","IL","61820",40.1077197457,-88.2436650619,3
"24884","dxkchxJR7biaqK1qUSxG8A","Asian Grill","1166 N Court St","Medina","OH","44256",41.157551,-81.861324,3.5
"24889","K0hjawODyinXeiHUlnn9VA","Green Lake","141 Richmond St","Painesville","OH","44077",41.7253269,-81.2486361,3.5
"24975","GDpd9KZdUgnjcoCWTTphqw","Szechuan Gourmet","1735 E 36th St","Cleveland","OH","44114",41.508505,-81.663319,4.5
"24978","EhlOUjd2dh52SV_XfoORSA","Sesame Inn Chinese Restaurant","715 Washington Rd","Pittsburgh","PA","15228",40.3796549065,-80.0448643438,3.5
"24991","XaqWUocr0MlYVi5yusjk0Q","China Wok","29241 Center Ridge Rd","Westlake","OH","44145",41.4328001,-81.9426767,2.5
"25136","F1vdFYr7P4Xb3uAQ2AYgzQ","Empire Palace Asian Restaurant and Bar","5100 Corporate Dr","Pittsburgh","PA","15237",40.5614108,-80.0246005,3.5
"25147","tZpxk604kWWHsJKyirraZg","LJ Shanghai","3142 Superior Ave","Cleveland","OH","44114",41.5110026135,-81.6688073455,4.5
"25165","-pqaqu9DRI5kC5SsLHGjYw","GalactiCenter Bodyworks","6602 Grand Teton Plz, Ste 150A","Madison","WI","53719",43.0600003,-89.4952211,5
"25224","aAiDjaeWjiD8XxRBGMLKyw","Mandarin","35956 Detroit Rd","Avon","OH","44011",41.460125,-82.015855,2.5
"25230","C16dsL_IEOb5UzRWYhxiKw","Grand China Restaurant","2608 Allen Blvd","Middleton","WI","53562",43.1035786,-89.4874522,3.5
"25286","z8Cw9KBnDj3X40H9fXElYw","New Peking Express","9507 State Rte 14","Streetsboro","OH","44241",41.2434926,-81.3562907,3.5
"25306","zs8FigAlH_rfYJ3FoCzMGw","Hakka Wok","1077 N Aurora Rd","Aurora","OH","44202",41.3473895484,-81.3782684536,4
"25417","Tz5a_AzxWx0gtIAlinr1Ww","Fortune Star","4100 William Penn Hwy, Ste 50","Monroeville","PA","15146",40.4375528936,-79.766564928,3
"25596","XErOb3obTwM_Kby23AIYfg","Golden Crown Chinese-American Restaurant","449 W 4th St","Lorain","OH","44052",41.4660517,-82.1789171,4
"25631","qThJY-H6Fo8HvfdIvwrjiw","Yeung's House","463 Perry Hwy","Pittsburgh","PA","15229",40.5206579,-80.0333287,4.5
"25748","EKQiKd7EMZjsa4JokFaeAg","China King","2145 S Neil St","Champaign","IL","61820",40.0877237618,-88.2479701689,2.5
"25870","t-LnJne10SHAWATKYdQdJQ","HuHot Mongolian Grill","610 Junction Rd, Ste 101","Madison","WI","53717",43.0732552,-89.5266501,3
"25911","iuIkzvQRb4DVWOMhE4GI3g","Ya Fei","1980 Park Manor Blvd","Pittsburgh","PA","15205",40.454298,-80.169241,4
"25975","Tn8NcJoZ44WspXKuzsDkAQ","China Mountain III","7907 Cedar Ave","Cleveland","OH","44103",41.5002788,-81.6328341,2
"26019","Zs8LPufciU-jDpbAVFqKcA","China Gate","13919 Cedar Rd","South Euclid","OH","44118",41.5024063,-81.5391659,4
"26036","GVTL5nxjlhzdXJMy4-4HBA","Sun Sun Chinese Restaurant","4203 Ridge Rd","Cleveland","OH","44144",41.4422838,-81.7348003,3
"26079","Xs_QOxzPZETqZ3MeNStvYA","Hop Hing Chinese Restaurant","9407 Mentor Ave","Mentor","OH","44060",41.6807851,-81.302645,3.5
"26081","aS4t4ee3xqQXgNHNxi9gAA","Flaming Wok","4237 Lien Rd, Ste H","Madison","WI","53704",43.1206048,-89.3089783,3
"26132","MxGk2Pxy2M0fQUV0t4bsbQ","Pearl Asian Kitchen","20060 Van Aken Blvd","Shaker Heights","OH","44122",41.465283,-81.538416,3.5
"26340","D0CmKnqGOf_jaPgECFZcCw","Good Fortune Asian Cuisine","7537 Mentor Ave","Mentor","OH","44060",41.65645,-81.3723358,2.5
"26341","NI75svhUpw1u0ClzrPFPCQ","Grand China","6631 Mayfield Rd","Cleveland","OH","44124",41.520549,-81.440117,2.5
"26371","kt8gBE0TcSC_Srrxg98Mow","Great Wall Chinese Restaurant","4930 Turney Rd","Cleveland","OH","44125",41.425735,-81.613844,3.5
"26435","qh1GCWP_2TKxevp3ZeMxag","Chan's Tea House","1009 W View Park Dr","West View","PA","15229",40.515967754,-80.0378046557,3.5
"26462","SUktrYdNQD8k2vvkM4OpfA","Peking Garden Restaurant","206 N Randolph St","Champaign","IL","61820",40.1178481689,-88.2451191659,4
"26515","mZde8M2gs5popxzKOvCo5w","South China Wok Restaurant","500 E Royalton Rd","Broadview Heights","OH","44147",41.3133837,-81.6822908,2.5
"26533","Ubye_qiESMKdUjQUBmNWWg","Panda Kitchen","503 S Court St, Ste A","Medina","OH","44256",41.1339615,-81.8645013,3
"26620","7LlND5b0bjWylNBNQ-oZMA","Green Garden","300 Beverly Rd","Pittsburgh","PA","15216",40.3889009,-80.0498904,2.5
"26646","iTNsT5xYHhQWTYDTROZCRw","TJ Buffet Sushi And Grill","590 Pittsburgh Mills Cir","Tarentum","PA","15084",40.572477,-79.799775,3
"26671","B5xWYgJDSN4RPPk4DlUajQ","Inchin's Bamboo Garden","5106 Great Northern Shop Ctr","North Olmsted","OH","44070",41.4164702649,-81.9236755371,3
"26722","EHKzu5r2NEz5Zq2R84J4ow","Taipei Tokyo","304 Mall Blvd","Monroeville","PA","15146",40.4342481,-79.7857618,4
"26730","WdQP8kl9SzcOdubWz0Rs5g","Red Beard Bodywork And Structural Integration","301 S Bedford St","Madison","WI","53703",43.0664939,-89.3889032,5
"26764","JtSNHDRRZffnHBEsJudW-g","Noodles & Company","7050 Mineral Point Rd","Madison","WI","53717",43.061559,-89.5048147,2.5
"26768","nb3v4cQdZAYfbcw6eAD4Dg","China House","50 Market Place Dr","Imperial","PA","15071",40.441391,-80.2394865,3.5
"26799","TaDp2EiNKqHhAp21xIoggg","Hunan King","1537 W River Rd N","Elyria","OH","44035",41.395495,-82.106304,3.5
"26831","-UjCvAsvBOr19y8lqPueiQ","China Garden","6393 Penn Ave","Pittsburgh","PA","15206",40.458282,-79.916891,2.5
"26839","uh5dMhIZygTzXEvn5K10jg","The Dragon Chinese Cuisine","3360 Main St","Munhall","PA","15120",40.3868616,-79.9029246,3.5
"27018","POJH4cPxgKCWWGVYJ_2i0w","Blissful Foot Spa","2171S Green Rd","University Heights","OH","44121",41.5007572,-81.518383,4
"27150","rPshoySU7Xfafoi3S0KDfg","Bangkok Thai Restaurant","3767 Darrow Rd","Stow","OH","44224",41.1673719905,-81.4399877563,4.5
"27277","PgaHjsWV3whvHF1CHU1rZg","King Wah","20668 Center Ridge Rd","Rocky River","OH","44116",41.4630934,-81.849458,3.5
"27489","T4JGbW9XEGQVrLpQcNFXtA","Sun Luck Garden","1901 S Taylor Rd","Cleveland Heights","OH","44118",41.5078027,-81.5551856,3.5
"27641","dGJwiltTg81VuCdHl485MA","Xiang Jiang","439 W Cottage Grove Rd","Cottage Grove","WI","53527",43.088143,-89.212288,3.5
"27645","Y81wukOSmZ6sRS1cn1QhXA","The Wok - Chinese Express","703 Eastwood Dr","Mahomet","IL","61853",40.1957401,-88.3979244,4.5
"27721","956ZfpypyxLLkRmlaHWGkA","Double Dragon Buffet","6276 Pearl Rd","Cleveland","OH","44130",41.3910348,-81.7637795,2.5
"27729","toc31C-Qy2smSq0A7Q8FgA","China Lin","5500 Butler St","Pittsburgh","PA","15201",40.483491,-79.948853,3.5
"27746","xahtvkGLbwU___3GMqmWUw","Hunan Lake Chinese Restaurant","7357 Lake Shore Blvd","Mentor","OH","44060",41.7012517,-81.3769597,3.5
"27884","bFlP7uApDamdiVHwX8OwfA","China Ichiban","318 Curry Hollow Rd","Pleasant Hills","PA","15236",40.3375560832,-79.9761933088,3.5
"27885","U8FC3Z_L_tHEUIvkwSSAXw","Hunan Kitchen","4554 William Penn Hwy","Murrysville","PA","15668",40.4261611,-79.6713418,4
"27940","lLUnPQC-hWuErZdW4Kgv7Q","Tj Asian Express & Sushi","500 Southpark Ctr","Strongsville","OH","44136",41.3088372,-81.8204038,3
"28051","xistlMeIIjG21z2SaWvfVQ","Kung Fu BBQ","510 E John St","Champaign","IL","61820",40.1093708,-88.2308592,3.5
"28128","cXmlv2WBzuB6JLMhaCvLuQ","Han Chinese Kabob & Grill","3710 Payne Ave, Ste 110","Cleveland","OH","44114",41.5095919,-81.662275,4
"28164","N9JASBwB9kWtK0_EjTa1nw","Chan An Restaurant","37 Walsh Rd","Pittsburgh","PA","15205",40.439176,-80.071117,4
"28193","atE68d1gSZf3849yIGLBJw","Northeastern Kitchen","5824 Forbes Ave","Pittsburgh","PA","15217",40.4377489,-79.92187,4
"28207","fsZXGdbPWCW7LYUoedu0aA","China One Buffet","1990 Cooper Foster Park Rd","Amherst","OH","44001",41.4183185844,-82.2010551004,3.5
"28321","OgwN65jZebPRIPSmNpRP7A","Taigu","7610 Elmwood Ave","Middleton","WI","53562",43.096083,-89.51364,4
"28362","RN-fX-LiwUm46a6G_r1xSw","China Moon","10735 Ravenna Rd","Twinsburg","OH","44087",41.331638,-81.464009,3
"28503","uuQDpnCYn1Nf2pXZTtMLHg","New China King","16210 Madison Ave","Lakewood","OH","44107",41.4778265,-81.8112702,3.5
"28558","HiJ2GEMZGKI8vwalAp2h-Q","Sichuan Hot Pot Cuisine","2162 Rockwell Ave","Cleveland","OH","44114",41.5086365,-81.6781363,4.5
"28591","5YUoTimGDPbbmRfw6SJgTQ","China Kitchen","6608 Mineral Point Rd","Madison","WI","53705",43.0615788,-89.4959373,3.5
"28665","Hc5NrzzzL8RAnbcrIAvZug","Nanjing Bistro","508 E Green St","Champaign","IL","61820",40.1103646,-88.2316647,3
"28784","B2UK8R5y-nSyTrCpzn_VFA","Mandarin House Restaurant of China","3201 State Rd","Cuyahoga Falls","OH","44223",41.1590203,-81.5097046,3.5
"28884","tw8I1hZdlGpwO2QaAIeQWg","Fuji Grill Buffet","1930 Snow Rd","Parma","OH","44134",41.406101,-81.6972721,3
"28893","zswdqM8Av3KxVv9o7_6ORA","Rainbow Garden Champaign","1402 S Neil St","Champaign","IL","61820",40.1005214,-88.2439537,3.5
"28903","rfnxqUGlB0njcjEWJCZ9mg","Zhou's Acupuncture & Wellness Clinic","6425 Normandy Ln","Madison","WI","53719",43.055999,-89.4910359,4.5
"28950","8B4tanBgBpccBUWSEH4yLA","Dragon City","600 W Verona Ave","Verona","WI","53593",42.9888651,-89.5454603,3
"29177","DXP3MbE8srQITLlAuS45aQ","Hunan Bar","239 Atwood St","Pittsburgh","PA","15213",40.4402935,-79.9562913,4
"29234","e-XkLeDKWKpleCT5a78gsw","Panda Garden","922 Windsor St","Sun Prairie","WI","53590",43.1886488,-89.228567,3.5
"29296","YufWhkZQPC6As55MuXTU8g","No. 1 Kitchen","1107 Brownsville Rd","Pittsburgh","PA","15210",40.405338,-79.989673,3.5
"29303","BH0K6SxPnY3wTRB7tA27hQ","Mark Pi's China Gate","32730 Walker Rd","Avon Lake","OH","44012",41.4938557,-82.0175191,3
"29345","WNvceXcngWjZz_IinDwYwA","Panda Express","9184 Mentor Ave","Mentor","OH","44060",41.6768194946,-81.311429143,2.5
"29433","RvwZqjdkZ_pER0moPXLZAQ","Rose Tea Cafe","5874 Forbes Ave","Pittsburgh","PA","15217",40.4379194,-79.9201297,3.5
"29528","VEa-IUbIgi9dmpCFMTn8Tw","Sakura Sushi House","15040 Pearl Rd","Strongsville","OH","44136",41.3060359,-81.8360017,4
"29540","sfdDEPXrpsOaywcu2jhjoA","Panda Express","9540 State Route 14","Streetsboro","OH","44241",41.2479685956,-81.3592395776,2
"29575","G8Js5hyLykjo8xVfIT4P5Q","Yangtze","133 Main St","Chardon","OH","44024",41.5816293,-81.2041548,3.5
"29589","0BEaW7yAystJ2OG-S0jv-Q","Ming Home","15720 Broadway Ave","Maple Heights","OH","44137",41.416596,-81.5719,3
"29629","xVgBhNzlnSmNY5MwqgBrCQ","Golden Dragon Chinese Restaurant","1597 Washington Pike, Ste A8","Bridgeville","PA","15017",40.381816,-80.095633,2.5
"29765","4FN50LnQ8Q8jz1Yimb131g","Sushi Asia Gourmet","1375 N Portage Path","Akron","OH","44313",41.1321454,-81.5486337,4
"29799","cIoB6iinl48KDGCVwtCHoA","China Dragon Restaurant","11421 Buckeye Rd","Cleveland","OH","44104",41.4826303,-81.6058534,2
"29922","4X3IPhAmq5YynFRDeuBlbQ","Sunrise Kitchen","3515 Hudson Dr, Ste 700","Stow","OH","44224",41.165096283,-81.4758834839,3
"29950","-06-Fdi30wJx-JA8P7CAng","China House","27241 Wolf Rd","Bay Village","OH","44140",41.4844092,-81.9218547,3.5
"29983","4HZdHS6I0XyNVRvvXC-G1A","China Express","999 High St","Wadsworth","OH","44281",41.0500413,-81.7276509,2.5
"29993","2Cmpz9lgr-wfOLAwgUf79g","ZenZen Taste ååé¢","6634 Watts Rd","Madison","WI","53719",43.0506402,-89.4976197,4
"30019","Sq7BouKjTovLesy6qewv5A","Great Wall","201 W Main St","Monongahela","PA","15063",40.2016905,-79.9241836,3.5
"30040","0DarxWxf-Cv0WT_EEWsM9w","Peking Restaurant","18198 Sloane Ave","Lakewood","OH","44107",41.4866806,-81.8241013,4
"30050","q7jC-6uH7IieKu8PcT2gBA","China House Chinese Restaurant","12037 Perry Hwy","Wexford","PA","15090",40.6316199,-80.059946,3.5
"30066","pWXVTPjNeFK0cBRbr-Qq-A","Mandarin Express","66 W Towne Mall","Madison","WI","53719",43.058198,-89.505108,3.5
"30071","kbq9QlIprqKpIWXZEXtGSA","No 1 Chinese Kitchen","11630 Frankstown Rd","Pittsburgh","PA","15235",40.4653138638,-79.8273912137,3
"30114","ElqLoKM__uU7DcYzRnMpNw","Hunan Solon","6050 Enterprise Pkwy","Solon","OH","44139",41.395033,-81.463795,3.5
"30429","0QCmxnnuhv-imac5uDeVHw","China Chef","9109 State Rte 14","Streetsboro","OH","44241",41.2381899,-81.3395717,3.5
"30440","oK_uwtOectm906rpUtHiug","China House","7413 Memphis Ave","Cleveland","OH","44144",41.4398212,-81.7363194,2
"30459","fhdqLktxyn6T0vKvbqO1qA","Raw Esthetics Skin - Cupping Studio","18123 Sloane Ave","Lakewood","OH","44107",41.485968,-81.823588,5
"30661","0It4d0eFPJ5UnQqe6g2Z3w","China Buffet King","2249 Noblestown Rd","Pittsburgh","PA","15205",40.4284987,-80.0524882,2.5
"30678","XODz0rilGYo6_xd5e7isOw","China Garden","114 N Vine St","Urbana","IL","61802",40.1134464,-88.2030631,3.5
"30681","7rLoG6F6kJYE_gPppl8_5A","Dragon Chinese Restaurant","140 Allegheny River Blvd","Verona","PA","15147",40.4985897186,-79.8447702439,4.5
"30778","0DD-SXcNL07Rh5DA0OAtkg","Tj Buffet Sushi & Grill","5866 Mayfield Rd","Mayfield Heights","OH","44124",41.5195502972,-81.46807082,2.5
"30880","nrGop3jH9s3cq-RTiEWOGQ","China Express","1235 E Grove Ave","Rantoul","IL","61866",40.313236,-88.1381107,2.5
"31201","e88VWa9xdHmSFdMZne9eLQ","Mandarin Wok","403 1/2 E Green St","Champaign","IL","61820",40.110155,-88.233079,3.5
"31244","o1TZ62VQ8RBoYv2B8v9UUg","China One","2765 E 55th St","Cleveland","OH","44104",41.4832268,-81.6506821,2
"31355","O5MzWfMWDeEwkzNVeKdCfg","China Taste","630 E Ohio St","Pittsburgh","PA","15212",40.4541832,-79.9981377,4
"31398","NG5qynmV0kzxQMFJG7mhEw","Hong Kong Taste","366 Butler St","Pittsburgh","PA","15223",40.4967683,-79.9437313,3
"31592","j1i7s55PmOFzJC3l6O8PiA","Hong Kong Station","1441 Regent St","Madison","WI","53711",43.067569,-89.410727,3.5
"31728","AYr2URtjoQ8Toh8_Jr4G6A","Rose Tea Cafe","414 S Craig St","Pittsburgh","PA","15213",40.444788,-79.9489549,2.5
"31773","hHYyTe8ncqy9WLLgnl_30A","New China Buffet","5935 Andrews Rd","Mentor-on-the-Lake","OH","44060",41.7094114366,-81.3593401015,4
"31850","K6AKMjAdCSe8xllsbyeL9Q","Asia Tea House","4230 Forbes Ave","Pittsburgh","PA","15213",40.4427240454,-79.9528134937,3
"31941","tetKWtLT0639lqnD9QJRKw","Panda Express","2070 Lebanon Church Rd","West Mifflin","PA","15122",40.3479348693,-79.9462279517,3
"32144","MBirSnTW4pt2k7Ny6KC72w","Szechuan Express","125 Oakland Ave","Pittsburgh","PA","15213",40.4417932,-79.9571431,3
"32366","IXP6VfjiUFIRiRbZjeUulw","Tong-Tong Chinese Restaurant","1646 Norton Rd","Stow","OH","44224",41.2009873,-81.437263,3
"32427","sRUesAB_yPZzzqMtjrwFsA","Asian Express","26010 Euclid Ave","Euclid","OH","44132",41.5883134,-81.5005106,3
"32459","ylDv7nEgpzTTqecYDOTEVA","Isthmus Wellness","515 Junction Rd, Ste C","Madison","WI","53717",43.0715773,-89.5245851,5
"32491","WJ0dK9O_prt2ud1BXAZYtg","Taste of China","5415 Monona Dr","Monona","WI","53716",43.0602545,-89.3266423,2.5
"32587","w9h-pTp1K6JMos-xzl3Wyw","Hot Wok Express","1102 W University Ave","Urbana","IL","61801",40.1166669,-88.2226294,3
"32668","jKxES7iLV63H_PfyGVGIDw","Lai Lai Wok","402 E Green St, Ste A","Champaign","IL","61820",40.1104616,-88.2333105,4
"32825","i5A6Bb9SpaYb3_Yr40Pk2g","Taste of China","25995 Highland Rd","Cleveland","OH","44143",41.5531643,-81.498089,4
"32849","XOjlj7fVauWibKrhXMS-uQ","Double Dragon","22929 Broadway Ave","Bedford","OH","44146",41.369795,-81.512786,4
"32862","kIaqY45GaVX136dXomREcg","Asian Cafe","1700-1760 William Flynn Hwy","Shaler Township","PA","15101",40.539151,-79.961829,4
"32874","5wr_UtUUdF8L2UlaD1DhNQ","Rice King","2199 Babcock Blvd","Pittsburgh","PA","15209",40.5105029,-79.9936595,3.5
"32928","hh1ed5ZU4-6NupSvORCccw","Happy Home Buffet","4801 McKnight Rd","Pittsburgh","PA","15237",40.5226591545,-80.006239,3
"32985","QIgeUHHn2hrrdEBBm1wFvA","Taste of Sichuan","515 State St","Madison","WI","53703",43.0747501,-89.3942144,4
"32991","LnYkQ2Hjm-klqYJVgZ1cEQ","Sakura","530 Euclid Ave","Cleveland","OH","44115",41.499097,-81.68919,4
"33277","x8dRsP9mpI2FD6vazC990A","Zen Cuisine","401 Euclid Ave","Cleveland","OH","44114",41.4999744,-81.6902403,4.5
"33313","Ef9crW61OYp2UJ0ysi3nEw","Hunan Wok Chinese Takeout","2158 Brownsville Rd","Pittsburgh","PA","15210",40.3915069,-79.9872591,3
"33500","Uo088VV_nzeTBJEbCCUSFw","China City","156 Cherry St","Kent","OH","44240",41.1397514,-81.3591117,3.5
"33550","5ZqybrqiTdbANn2yI3B3VA","Great Wall","4515 Verona Rd","Madison","WI","53711",43.0352412,-89.4535994,3.5
"33559","XUDOc980cjB0PZvVS-T6Eg","Jimmy Wans","1337 Old Freeport Rd","Pittsburgh","PA","15238",40.4889019,-79.874634,3.5
"33575","6Az5aA5sdrqwfJjnS8TROQ","Night Market Gourmet","114 Atwood St","Pittsburgh","PA","15213",40.441257,-79.95815,4.5
"33678","Aqhy2ZYpEeJ61aIJH_iCxw","East China","5216 Broadview Rd","Cleveland","OH","44134",41.4186963,-81.6954544,2.5
"33713","LTF14u6dfIyJQ41P-FooiA","China Cafe","5239 Brownsville Rd","Pittsburgh","PA","15236",40.3423865,-79.984206,4
"33772","6T6EpsPG7SXZ0qDUvp34wg","Dynasty Chinese Restaurant","2705 W Beltline Hwy","Madison","WI","53713",43.0344752,-89.4235646,3.5
"33784","kxAQGy2ZpguB7zn8Nqgb_g","Moonlight Truck Food","Margaret Morrison St","Pittsburgh","PA","15213",40.442195025,-79.9385726452,3
"33810","L-aDFoHDcVG1ImCoG361jw","China Star","114 Moore Rd","Avon Lake","OH","44012",41.5043943,-82.0473114,4
"33849","7fiRVsawDX0vCpoMTbbxcQ","China House","21789 Lorain Rd","Cleveland","OH","44126",41.4414556,-81.861694,2.5
"33927","I_vzg2V92U7wdD61tvGtpg","The Tong Garden","956 Brookline Blvd","Pittsburgh","PA","15226",40.3917885,-80.0177097,4
"34013","N0L1C5K9ViBD58vig5sahw","Little China","2 Ppg Pl","Pittsburgh","PA","15222",40.4436281744,-80.004809091,3.5
"34025","c98EjK4wKpKrGrdZibPq2g","Fortune Star Buffet & Grill","591 Clairton Blvd","Pleasant Hills","PA","15236",40.3326031,-79.9440673,3
"34045","XE97VxjZoRxV6IM05grY0g","Sizzling Hut","404 N Main St","DeForest","WI","53532",43.2510066,-89.3439362,4.5
"34189","7toYPf5ZAjCkEuwaMPtDwQ","Wah Fu Chinese Restaurant","15210 Bagley Rd","Cleveland","OH","44130",41.3696012127,-81.8036576249,3
"34246","e7oOEdxosDy5NG_XxdXVAg","China Sea Chinese Restaurant","610 Lincoln Ave","Bellevue","PA","15202",40.4972056,-80.0583585,3
"34254","qbDaSyxDfUZNheucJym2Pg","Golden Dragon","5871 Mayfield Rd","Cleveland","OH","44124",41.5205198,-81.4678638,2.5
"34281","hh6OnxhTmfoyLo4prSNwBQ","Great Wall","6871 W 130th St","Cleveland","OH","44130",41.377659,-81.7836306,3.5
"34412","rS4vCHv4UPjYLiDN74Y9Gw","No 1 Express","3977 Warrensville Center Rd","Warrensville Heights","OH","44122",41.4512642134,-81.5356668457,3
"34523","uZZnIe0KJEpFlJlYedrQsg","Inchin's Bamboo Garden","11440 Euclid Ave","Cleveland","OH","44106",41.5096408966,-81.6041102477,3
"34626","XF2eTNV5RfzoSJQ-kRZJmA","Spice Thai Cuisine","8870 Darrow Rd","Twinsburg","OH","44087",41.3074471345,-81.4420044422,3.5
"34709","pyZkGdnTwpRh5tFWfdmQEg","Chin's Asia Fresh","8414 Old Sauk Rd","Middleton","WI","53562",43.0753452677,-89.5284801808,3
"34740","0I0yATfnNQJB-A-IPGgqDA","Aristo Bistro","25124 Center Ridge Rd","Westlake","OH","44145",41.4571533124,-81.8984294016,4.5
"34781","G9a9tyDv6jdQl42EfKqlIw","Studio 43 Salon and Spa","7285 State Rte 43","Kent","OH","44240",41.1890525818,-81.3468475342,3
"34794","3-HFGxmbzSax-NySJ_LzDg","VIP","6718-6722 Odana Rd","Madison","WI","53719",43.0570179,-89.49836,3.5
"34804","2Ql9YdeQstF79FLZyypDWQ","Hunan King Restaurant","3317 Oberlin Ave","Lorain","OH","44053",41.4397256,-82.1850407,4.5
"34857","Q6Kp7sp3GXykifV2TjomZQ","Chang Jiang","1017 N Edge Trl","Verona","WI","53593",43.0020746,-89.5306507,3
"34860","pTvL6Upfp91J1ryrCZpzgg","Jade Garden","1109 S Park St","Madison","WI","53715",43.0548573,-89.3968559,3
"34944","wlUiXdH1Cfj4do5kNxrOtw","Hunan of Lyndhurst","5670 Mayfield Rd","Cleveland","OH","44124",41.5191431776,-81.4751980321,2.5
"34945","AZ_iSVHQdBiCTnMolLTg3Q","China Buffet","6401 Penn Ave","Pittsburgh","PA","15206",40.458066,-79.917146,3
"35071","THTiTUAvK1ihGpXleFjGcQ","No 1 Kitchen","635 Abbe Rd S","Elyria","OH","44035",41.3636267,-82.078337,3
"35137","mofOjB6flg-eAWOFbOkHfQ","ChinaTown Buffet","713 W Marketview Dr","Champaign","IL","61822",40.13727,-88.2560426,2.5
"35142","CcOjMY6DP9x8nsf9ZYJxow","Safarik Wellness","6314 Odana Rd, Ste 22","Madison","WI","53719",43.0543722,-89.4889097,5
"35206","vNdf_D-Prw2lXDLeKHohxA","Pandas","4174 Wheatley Rd, Ste 600","Richfield","OH","44286",41.2195696,-81.6369753,3.5
"35329","BNeS_hZfmdQWsqewj-LuDA","Ting's Kitchen","3200 Mcintyre Square Dr","Pittsburgh","PA","15237",40.5531627166,-80.0155167018,4
"35337","Q8NR1XY6BiVT6YCvkWPsBQ","Magic Wok","1027 N Aurora Rd","Aurora","OH","44202",41.3455033,-81.3763519,4
"35361","3qrfY-XCUKVyrO5T6GskqA","Noodles & Company","3805 Forbes Ave","Pittsburgh","PA","15213",40.4418195,-79.9568582,3
"35398","jwuR0AGCw_BaM8uEkKyVEw","Main Moon","4850 Larson Beach Rd","Mc Farland","WI","53558",43.0183323893,-89.2990612503,3
"35409","VKkK2Kn4wlF9ksUubH9M3A","China Kitchen","544 N Center St","Lagrange","OH","44050",41.2458578513,-82.118034102,2.5
"35437","5NpmXRTEpi4ZOEK6LrYrGw","China King","319 S Division St","Stoughton","WI","53589",42.9162149495,-89.2203672297,4
"35453","AB6xAAxRRVS8tJgbW1aphw","China Lobster","3215 Leechburg Rd","New Kensington","PA","15068",40.585867,-79.709536,3.5
"35497","i17-RGooGWIad0y5YtaBtQ","China House","4506 Liberty Ave","Pittsburgh","PA","15224",40.4628283,-79.9516846,4
"35507","WuxgvHDQ1aMIaAQ_1ciOXg","Beijing Garden","7995 Darrow Rd","Twinsburg","OH","44087",41.283934,-81.440302,4
"35532","oEHjXUvJnYf144QyAvvY2w","Ming Yip Acupuncture & Herbal Therapy","2528 Penn Ave","Pittsburgh","PA","15222",40.4544103,-79.9791143,5
"35573","klWcP_4OVXLStd3VovuA1A","Greedys Restaurant","4338 E 71st St","Cleveland","OH","44105",41.4407600634,-81.6396193246,3.5
"35589","GZmpmQdY90Q4g-I5waNMGQ","Hunan King Chinese Restaurant","1700 Mount Royal Blvd","Glenshaw","PA","15116",40.525341,-79.961673,3
"35731","aqrC9UyFD6IL19-yRqqQjA","China Wok","423 Cleveland St","Elyria","OH","44035",41.3743749,-82.0861478,3
"35733","NlzU1RxfXaWF6ir-ZWfrLg","Madison Cuisine","785 University Ave","Madison","WI","53715",43.0730348,-89.398342,3
"35750","mTPC_emDlTlfwr5o8A9APw","Hing Wong ","515 Pittsburgh St","Springdale","PA","15144",40.5411720291,-79.7854216882,4.5
"35960","sReFrTIJ92iDprWD8dKAuw","Phong May House","2351 Noblestown Rd","Pittsburgh","PA","15205",40.4269308,-80.0548448,3
"36035","bsme1TUoEQt5EDF7O6HBrg","Dragon Light","3537 W 105th St","Cleveland","OH","44111",41.4561071,-81.7585178,4
"36058","vn5f16PcHU-feucWgK7r1g","Edo Asian cuisine","532 S Park St","Madison","WI","53715",43.0611378,-89.4010411,3
"36116","6PPoODoXUyMULipVWnpJWw","Chen's Garden","2047 State Rd","Cuyahoga Falls","OH","44223",41.1355058,-81.508111,3.5
"36139","LG6vpg5Qx_DstY2aT8-O4Q","Asian Kitchen","449 State St, Ste E","Madison","WI","53703",43.0745126,-89.3933663,3
"36207","mdpETdI-PdPbMtiAnf8m8g","Panda Express","1028 Freeport Rd","Pittsburgh","PA","15238",40.48676,-79.8871478,1.5
"36295","MJXN25eWW0U4E5aVUlAFCw","Ming Moon","3786 W 117th St","Cleveland","OH","44111",41.4500459,-81.7695057,3
